[{"Metro Manila" :
  [{ "name": "Caloocan", "province": "MM", "city": true },
  { "name": "Las Piñas", "province": "MM", "city": true },
  { "name": "Makati", "province": "MM", "city": true },
  { "name": "Malabon", "province": "MM", "city": true },
  { "name": "Mandaluyong", "province": "MM", "city": true },
  { "name": "Manila", "province": "MM", "city": true },
  { "name": "Marikina", "province": "MM", "city": true },
  { "name": "Muntinlupa", "province": "MM", "city": true },
  { "name": "Navotas", "province": "MM", "city": true },
  { "name": "Parañaque", "province": "MM", "city": true },
  { "name": "Pasay", "province": "MM", "city": true },
  { "name": "Pasig", "province": "MM", "city": true },
  { "name": "Pateros", "province": "MM" },
  { "name": "Quezon", "province": "MM", "city": true },
  { "name": "San Juan", "province": "MM", "city": true },
  { "name": "Taguig", "province": "MM", "city": true },
  { "name": "Valenzuela", "province": "MM", "city": true }]},
{"Abra":
  [{ "name": "Bangued", "province": "ABR", "zip":2800 },
  { "name": "Boliney", "province": "ABR", "zip":2815 },
  { "name": "Bucay", "province": "ABR", "zip":2805 },
  { "name": "Bucloc", "province": "ABR", "zip":2817 },
  { "name": "Daguioman", "province": "ABR", "zip":2816 },
  { "name": "Danglas", "province": "ABR", "zip":2825 },
  { "name": "Dolores", "province": "ABR", "zip":2801 },
  { "name": "La Paz", "province": "ABR", "zip":2826 },
  { "name": "Lacub", "province": "ABR", "zip":2821 },
  { "name": "Lagangilang", "province": "ABR", "zip":2802 },
  { "name": "Lagayan", "province": "ABR", "zip":2824 },
  { "name": "Langiden", "province": "ABR", "zip":2807 },
  { "name": "Licuan-Baay", "province": "ABR", "zip":2819 },
  { "name": "Luba", "province": "ABR", "zip":2813 },
  { "name": "Malibcong", "province": "ABR", "zip":2820 },
  { "name": "Manabo", "province": "ABR", "zip":2810 },
  { "name": "Peñarrubia", "province": "ABR", "zip":2804 },
  { "name": "Pidigan", "province": "ABR", "zip":2806 },
  { "name": "Pilar", "province": "ABR", "zip":2812 },
  { "name": "Sallapadan", "province": "ABR", "zip":2818 },
  { "name": "San Isidro", "province": "ABR", "zip":2809 },
  { "name": "San Juan", "province": "ABR", "zip":2823 },
  { "name": "San Quintin", "province": "ABR", "zip":2808 },
  { "name": "Tayum", "province": "ABR", "zip":2803 },
  { "name": "Tineg", "province": "ABR", "zip":2822 },
  { "name": "Tubo", "province": "ABR", "zip":2814 },
  { "name": "Villaviciosa", "province": "ABR", "zip":2811 }]},
{"Apayao":
  [{ "name": "Calanasan", "province": "APA", "zip":3814 },
  { "name": "Conner", "province": "APA", "zip":3807 },
  { "name": "Flora", "province": "APA", "zip":3810 },
  { "name": "Kabugao", "province": "APA", "zip":3809 },
  { "name": "Luna", "province": "APA", "zip":3813 },
  { "name": "Pudtol", "province": "APA", "zip":3812 },
  { "name": "Santa Marcela", "province": "APA", "zip":3811 }]},
{"Benguet":
  [{ "name": "Atok", "province": "BEN", "zip":2612 },
  { "name": "Baguio", "province": "BEN", "city": true, "zip":2600 },
  { "name": "Bakun", "province": "BEN", "zip":2610 },
  { "name": "Bokod", "province": "BEN", "zip":2605 },
  { "name": "Buguias", "province": "BEN", "zip":2607 },
  { "name": "Itogon", "province": "BEN", "zip":2604 },
  { "name": "Kabayan", "province": "BEN", "zip":2606 },
  { "name": "Kapangan", "province": "BEN", "zip":2613 },
  { "name": "Kibungan", "province": "BEN", "zip":2611 },
  { "name": "La Trinidad", "province": "BEN", "zip":2601 },
  { "name": "Lepanto", "province": "BEN", "zip":2609 },
  { "name": "Mankayan", "province": "BEN", "zip":2608 },
  { "name": "Sablan", "province": "BEN", "zip":2614 },
  { "name": "Tuba", "province": "BEN", "zip":2603 },
  { "name": "Tublay", "province": "BEN", "zip":2615 }]},
{"Ifugao":
  [{ "name": "Aguinaldo", "province": "IFU", "zip": 3606 },
  { "name": "Alfonso Lista", "province": "IFU", "zip": 3608 },
  { "name": "Asipulo", "province": "IFU", "zip": 3610 },
  { "name": "Banaue", "province": "IFU", "zip": 3601 },
  { "name": "Hingyon", "province": "IFU", "zip": 3607 },
  { "name": "Hungduan", "province": "IFU", "zip": 3603 },
  { "name": "Kiangan", "province": "IFU", "zip": 3604 },
  { "name": "Lagawe", "province": "IFU", "zip": 3600 },
  { "name": "Lamut", "province": "IFU", "zip": 3605 },
  { "name": "Mayoyao", "province": "IFU", "zip": 3602 },
  { "name": "Tinoc", "province": "IFU", "zip": 3609 }]},
{"Kalinga":
  [{ "name": "Balbalan", "province": "KAL", "zip": 3801 },
  { "name": "Lubuagan", "province": "KAL", "zip": 3802 },
  { "name": "Pasil", "province": "KAL", "zip": 3803 },
  { "name": "Pinukpuk", "province": "KAL", "zip": 3806 },
  { "name": "Rizal", "province": "KAL", "zip": 3808 },
  { "name": "Tabuk", "province": "KAL", "city": true , "zip": 3800},
  { "name": "Tanudan", "province": "KAL", "zip": 3805 },
  { "name": "Tinglayan", "province": "KAL", "zip": 3804 }]},
{"Mountain Province":
  [{ "name": "Barlig", "province": "MOU", "zip": 2623 },
  { "name": "Bauko", "province": "MOU", "zip": 2621 },
  { "name": "Besao", "province": "MOU", "zip": 2618 },
  { "name": "Bontoc", "province": "MOU", "zip": 2616 },
  { "name": "Natonin", "province": "MOU", "zip": 2624 },
  { "name": "Paracelis", "province": "MOU", "zip": 2625 },
  { "name": "Sabangan", "province": "MOU", "zip": 2622 },
  { "name": "Sadanga", "province": "MOU", "zip": 2617 },
  { "name": "Sagada", "province": "MOU", "zip": 2619 },
  { "name": "Tadian", "province": "MOU", "zip": 2620 }]},
{"Ilocos Norte":
  [{ "name": "Adams", "province": "ILN", "zip": 2922},
  { "name": "Bacarra", "province": "ILN", "zip": 2916 },
  { "name": "Badoc", "province": "ILN", "zip": 2904 },
  { "name": "Bangui", "province": "ILN", "zip": 2920 },
  { "name": "Banna", "province": "ILN", "zip": 2908 },
  { "name": "Batac", "province": "ILN", "city": true, "zip": 2906 },
  { "name": "Burgos", "province": "ILN", "zip": 2918 },
  { "name": "Carasi", "province": "ILN", "zip": 2911 },
  { "name": "Currimao", "province": "ILN", "zip": 2903 },
  { "name": "Dingras", "province": "ILN", "zip": 2913 },
  { "name": "Dumalneg", "province": "ILN", "zip": 2921 },
  { "name": "Laoag", "province": "ILN", "city": true, "zip": 2900 },
  { "name": "Marcos", "province": "ILN", "zip": 2907 },
  { "name": "Nueva Era", "province": "ILN", "zip": 2909 },
  { "name": "Pagudpud", "province": "ILN", "zip": 2919 },
  { "name": "Paoay", "province": "ILN", "zip": 2902 },
  { "name": "Pasuquin", "province": "ILN", "zip": 2917 },
  { "name": "Piddig", "province": "ILN", "zip": 2912 },
  { "name": "Pinili", "province": "ILN", "zip": 2905 },
  { "name": "San Nicolas", "province": "ILN", "zip": 2901 },
  { "name": "Sarrat", "province": "ILN", "zip": 2914 },
  { "name": "Solsona", "province": "ILN", "zip": 2910 },
  { "name": "Vintar", "province": "ILN", "zip": 2915 }]},
{"Ilocos Sur":
  [{ "name": "Alilem", "province": "ILS", "zip": 2716 },
  { "name": "Banayoyo", "province": "ILS", "zip": 2708 },
  { "name": "Bantay", "province": "ILS", "zip": 2727 },
  { "name": "Burgos", "province": "ILS", "zip": 2724 },
  { "name": "Cabugao", "province": "ILS", "zip": 2732 },
  { "name": "Candon", "province": "ILS", "city": true, "zip": 2710 },
  { "name": "Caoayan", "province": "ILS", "zip": 2702 },
  { "name": "Cervantes", "province": "ILS", "zip": 2718 },
  { "name": "Galimuyod", "province": "ILS", "zip": 2709 },
  { "name": "Gregorio Del Pilar", "province": "ILS", "zip": 2720 },
  { "name": "Lidlidda", "province": "ILS", "zip": 2723 },
  { "name": "Magsingal", "province": "ILS", "zip": 2730 },
  { "name": "Nagbukel", "province": "ILS", "zip": 2725 },
  { "name": "Narvacan", "province": "ILS", "zip": 2704 },
  { "name": "Quirino", "province": "ILS", "zip": 2721 },
  { "name": "Salcedo", "province": "ILS", "zip": 2711 },
  { "name": "San Emilio", "province": "ILS", "zip": 2722 },
  { "name": "San Esteban", "province": "ILS", "zip": 2706 },
  { "name": "San Ildefonso", "province": "ILS", "zip": 2728 },
  { "name": "San Juan", "province": "ILS" , "zip": 2731},
  { "name": "San Vicente", "province": "ILS", "zip": 2726 },
  { "name": "Santa", "province": "ILS", "zip": 2703 },
  { "name": "Santa Catalina", "province": "ILS", "zip": 2701 },
  { "name": "Santa Cruz", "province": "ILS", "zip": 2713 },
  { "name": "Santa Lucia", "province": "ILS", "zip": 2712 },
  { "name": "Santa Maria", "province": "ILS", "zip": 2705 },
  { "name": "Santiago", "province": "ILS", "zip": 2707 },
  { "name": "Santo Domingo", "province": "ILS" , "zip": 2729},
  { "name": "Sigay", "province": "ILS", "zip": 2719 },
  { "name": "Sinait", "province": "ILS", "zip": 2733 },
  { "name": "Sugpon", "province": "ILS", "zip": 2717 },
  { "name": "Suyo", "province": "ILS", "zip": 2715 },
  { "name": "Tagudin", "province": "ILS", "zip": 2714 },
  { "name": "Vigan", "province": "ILS", "city": true , "zip": 2700}]},
{"La Union":
  [{ "name": "Agoo", "province": "LUN", "zip": 2504 },
  { "name": "Aringay", "province": "LUN", "zip": 2503 },
  { "name": "Bacnotan", "province": "LUN", "zip": 2515 },
  { "name": "Bagulin", "province": "LUN", "zip": 2512 },
  { "name": "Balaoan", "province": "LUN", "zip": 2517 },
  { "name": "Bangar", "province": "LUN", "zip": 2519 },
  { "name": "Bauang", "province": "LUN", "zip": 2501 },
  { "name": "Burgos", "province": "LUN", "zip": 2510 },
  { "name": "Caba", "province": "LUN", "zip": 2502 },
  { "name": "Luna", "province": "LUN", "zip": 2518 },
  { "name": "Naguilian", "province": "LUN", "zip": 2511 },
  { "name": "Pugo", "province": "LUN", "zip": 2508 },
  { "name": "Rosario", "province": "LUN", "zip": 2506 },
  { "name": "San Fernando", "province": "LUN", "city": true, "zip": 2500 },
  { "name": "San Gabriel", "province": "LUN", "zip": 2513 },
  { "name": "San Juan", "province": "LUN", "zip": 2514 },
  { "name": "Santo Tomas", "province": "LUN", "zip": 2505 },
  { "name": "Santol", "province": "LUN", "zip": 2516 },
  { "name": "Sudipen", "province": "LUN", "zip": 2520 },
  { "name": "Tubao", "province": "LUN", "zip": 2509 }]},
{"Pangasinan":
  [{ "name": "Agno", "province": "PAN", "zip": 2408 },
  { "name": "Aguilar", "province": "PAN", "zip": 2415 },
  { "name": "Alaminos", "province": "PAN", "city": true , "zip": 2404},
  { "name": "Alcala", "province": "PAN", "zip": 2425 },
  { "name": "Anda", "province": "PAN", "zip": 2405 },
  { "name": "Asingan", "province": "PAN", "zip": 2439 },
  { "name": "Balungao", "province": "PAN", "zip": 2442 },
  { "name": "Bani", "province": "PAN", "zip": 2407 },
  { "name": "Basista", "province": "PAN", "zip": 2422 },
  { "name": "Bautista", "province": "PAN", "zip": 2424 },
  { "name": "Bayambang", "province": "PAN", "zip": 2423 },
  { "name": "Binalonan", "province": "PAN", "zip": 2436 },
  { "name": "Binmaley", "province": "PAN", "zip": 2417 },
  { "name": "Bolinao", "province": "PAN", "zip": 2406 },
  { "name": "Bugallon", "province": "PAN", "zip": 2416 },
  { "name": "Burgos", "province": "PAN", "zip": 2410 },
  { "name": "Calasiao", "province": "PAN", "zip": 2418 },
  { "name": "Dagupan", "province": "PAN", "city": true, "zip": 2400 },
  { "name": "Dasol", "province": "PAN", "zip": 2411 },
  { "name": "Infanta", "province": "PAN", "zip": 2412 },
  { "name": "Labrador", "province": "PAN", "zip": 2402 },
  { "name": "Laoac", "province": "PAN", "zip": 2437 },
  { "name": "Lingayen", "province": "PAN", "zip": 2401 },
  { "name": "Mabini", "province": "PAN", "zip": 2409 },
  { "name": "Malasiqui", "province": "PAN", "zip": 2421 },
  { "name": "Manaoag", "province": "PAN", "zip": 2430 },
  { "name": "Mangaldan", "province": "PAN", "zip": 2432 },
  { "name": "Mangatarem", "province": "PAN", "zip": 2413 },
  { "name": "Mapandan", "province": "PAN", "zip": 2429 },
  { "name": "Natividad", "province": "PAN", "zip": 2446 },
  { "name": "Pozzorubio", "province": "PAN", "zip": 2435 },
  { "name": "Rosales", "province": "PAN", "zip": 2441 },
  { "name": "San Carlos", "province": "PAN", "city": true, "zip": 2420 },
  { "name": "San Fabian", "province": "PAN", "zip": 2433 },
  { "name": "San Jacinto", "province": "PAN", "zip": 2431 },
  { "name": "San Manuel", "province": "PAN", "zip": 2438 },
  { "name": "San Nicolas", "province": "PAN", "zip": 2447 },
  { "name": "San Quintin", "province": "PAN", "zip": 2444 },
  { "name": "Santa Barbara", "province": "PAN", "zip": 2419 },
  { "name": "Santa Maria", "province": "PAN", "zip": 2440 },
  { "name": "Santo Tomas", "province": "PAN", "zip": 2426 },
  { "name": "Sison", "province": "PAN", "zip": 2434 },
  { "name": "Sual", "province": "PAN", "zip": 2403 },
  { "name": "Tayug", "province": "PAN", "zip": 2445 },
  { "name": "Umingan", "province": "PAN", "zip": 2443 },
  { "name": "Urdaneta", "province": "PAN", "city": true, "zip": 2428 },
  { "name": "Urbiztondo", "province": "PAN", "zip": 2414 },
  { "name": "Villasis", "province": "PAN", "zip": 2427 }]},
{"Batanes":
  [{ "name": "Basco", "province": "BTN", "zip": 3900 },
  { "name": "Itbayat", "province": "BTN", "zip": 3905 },
  { "name": "Ivana", "province": "BTN", "zip": 3902 },
  { "name": "Mahatao", "province": "BTN", "zip": 3901 },
  { "name": "Sabtang", "province": "BTN", "zip": 3904 },
  { "name": "Uyugan", "province": "BTN", "zip": 3903 }]},
{"Cagayan":
  [{ "name": "Abulug", "province": "CAG", "zip": 3517 },
  { "name": "Alcala", "province": "CAG", "zip": 3507 },
  { "name": "Allacapan", "province": "CAG", "zip": 3523 },
  { "name": "Amulung", "province": "CAG", "zip": 3505 },
  { "name": "Aparri", "province": "CAG", "zip": 3515 },
  { "name": "Baggao", "province": "CAG", "zip": 3506 },
  { "name": "Ballesteros", "province": "CAG", "zip": 3516 },
  { "name": "Buguey", "province": "CAG", "zip": 3511 },
  { "name": "Calayan", "province": "CAG", "zip": 3520 },
  { "name": "Camalaniugan", "province": "CAG", "zip": 3510 },
  { "name": "Claveria", "province": "CAG", "zip": 3519 },
  { "name": "Enrile", "province": "CAG", "zip": 3501 },
  { "name": "Gattaran", "province": "CAG", "zip": 3508 },
  { "name": "Gonzaga", "province": "CAG", "zip": 3513 },
  { "name": "Iguig", "province": "CAG", "zip": 3504 },
  { "name": "Lal-lo", "province": "CAG", "zip": 3509 },
  { "name": "Lasam", "province": "CAG", "zip": 3524 },
  { "name": "Pamplona", "province": "CAG", "zip": 3522 },
  { "name": "Peñablanca", "province": "CAG", "zip": 3502 },
  { "name": "Piat", "province": "CAG", "zip": 3527 },
  { "name": "Rizal", "province": "CAG", "zip": 3526 },
  { "name": "Sanchez-Mira", "province": "CAG", "zip": 3518 },
  { "name": "Santa Ana", "province": "CAG", "zip": 3514 },
  { "name": "Santa Praxedes", "province": "CAG", "zip": 3521 },
  { "name": "Santa Teresita", "province": "CAG", "zip": 3512 },
  { "name": "Santo Niño", "province": "CAG", "zip": 3525 },
  { "name": "Solana", "province": "CAG", "zip": 3503 },
  { "name": "Tuao", "province": "CAG", "zip": 3528 },
  { "name": "Tuguegarao", "province": "CAG", "city": true, "zip": 3500 }]},
{"Isabela":
  [{ "name": "Alicia", "province": "ISA", "zip": 3306 },
  { "name": "Angadanan", "province": "ISA", "zip": 3307 },
  { "name": "Aurora", "province": "ISA", "zip": 3316 },
  { "name": "Benito Soliven", "province": "ISA", "zip": 3331 },
  { "name": "Burgos", "province": "ISA", "zip": 3322 },
  { "name": "Cabagan", "province": "ISA", "zip": 3328 },
  { "name": "Cabatuan", "province": "ISA", "zip": 3315 },
  { "name": "Cauayan", "province": "ISA", "city": true, "zip": 3305 },
  { "name": "Cordon", "province": "ISA", "zip": 3312 },
  { "name": "Delfin Albano", "province": "ISA", "zip": 3326 },
  { "name": "Dinapigue", "province": "ISA", "zip": 3326 },
  { "name": "Divilacan", "province": "ISA", "zip": 3335 },
  { "name": "Echague", "province": "ISA", "zip": 3309 },
  { "name": "Gamu", "province": "ISA", "zip": 3301 },
  { "name": "Ilagan", "province": "ISA", "city": true, "zip": 3300 },
  { "name": "Jones", "province": "ISA", "zip": 3313 },
  { "name": "Luna", "province": "ISA", "zip": 3304 },
  { "name": "Maconacon", "province": "ISA", "zip": 3333 },
  { "name": "Mallig", "province": "ISA", "zip": 3323 },
  { "name": "Naguilian", "province": "ISA", "zip": 3302 },
  { "name": "Palanan", "province": "ISA", "zip": 3334 },
  { "name": "Quezon", "province": "ISA", "zip": 3324 },
  { "name": "Quirino", "province": "ISA", "zip": 3321 },
  { "name": "Ramon", "province": "ISA", "zip": 3319 },
  { "name": "Reina Mercedes", "province": "ISA", "zip": 3303 },
  { "name": "Roxas", "province": "ISA", "zip": 3320 },
  { "name": "San Agustin", "province": "ISA", "zip": 3314 },
  { "name": "San Guillermo", "province": "ISA", "zip": 3308 },
  { "name": "San Isidro", "province": "ISA", "zip": 3310 },
  { "name": "San Manuel", "province": "ISA", "zip": 3317 },
  { "name": "San Mariano", "province": "ISA", "zip": 3332 },
  { "name": "San Mateo", "province": "ISA", "zip": 3318 },
  { "name": "San Pablo", "province": "ISA" , "zip": 3329 },
  { "name": "Santa Maria", "province": "ISA", "zip": 3330 },
  { "name": "Santiago", "province": "ISA", "city": true, "zip": 3311 },
  { "name": "Santo Tomas", "province": "ISA", "zip": 3327 },
  { "name": "Tumauini", "province": "ISA", "zip": 3325 }]},
{"Nueva Vizcaya":
  [{ "name": "Alfonso Castaneda", "province": "NUV", "zip": 3714 },
  { "name": "Ambaguio", "province": "NUV", "zip": 3701 },
  { "name": "Aritao", "province": "NUV", "zip": 3704 },
  { "name": "Bagabag", "province": "NUV", "zip": 3711 },
  { "name": "Bambang", "province": "NUV", "zip": 3702 },
  { "name": "Bayombong", "province": "NUV", "zip": 3700 },
  { "name": "Diadi", "province": "NUV", "zip": 3712 },
  { "name": "Dupax del Norte", "province": "NUV", "zip": 3706 },
  { "name": "Dupax del Sur", "province": "NUV", "zip": 3707 },
  { "name": "Kasibu", "province": "NUV", "zip": 3703 },
  { "name": "Kayapa", "province": "NUV", "zip": 3708 },
  { "name": "Quezon", "province": "NUV", "zip": 3713 },
  { "name": "Santa Fe", "province": "NUV", "zip": 3705 },
  { "name": "Solano", "province": "NUV", "zip": 3709 },
  { "name": "Villaverde", "province": "NUV", "zip": 3710 }]},
{"Quirino":
  [{ "name": "Aglipay", "province": "QUI", "zip": 3403 },
  { "name": "Cabarroguis", "province": "QUI", "zip": 3400 },
  { "name": "Diffun", "province": "QUI", "zip": 3401 },
  { "name": "Maddela", "province": "QUI", "zip": 3404 },
  { "name": "Nagtipunan", "province": "QUI", "zip": 3405 },
  { "name": "Saguday", "province": "QUI", "zip": 3402 }]},
{"Aurora":
  [{ "name": "Baler", "province": "AUR", "zip":3200   },
  { "name": "Casiguran", "province": "AUR", "zip":3204 },
  { "name": "Dilasag", "province": "AUR", "zip":3205 },
  { "name": "Dinalungan", "province": "AUR", "zip":3206 },
  { "name": "Dingalan", "province": "AUR" , "zip":3207},
  { "name": "Dipaculao", "province": "AUR", "zip":3203 },
  { "name": "Maria Aurora", "province": "AUR", "zip":3202 },
  { "name": "San Luis", "province": "AUR", "zip":3201 }]},
{"Bataan":
  [{ "name": "Abucay", "province": "BAN", "zip":2114 },
  { "name": "Bagac", "province": "BAN", "zip":2107 },
  { "name": "Balanga", "province": "BAN", "city": true, "zip":2100 },
  { "name": "Dinalupihan", "province": "BAN", "zip":2110 },
  { "name": "Hermosa", "province": "BAN", "zip":2111 },
  { "name": "Lamao", "province": "BAN", "zip":2104 },
  { "name": "Limay", "province": "BAN", "zip":2103 },
  { "name": "Mariveles", "province": "BAN", "zip":2105 },
  { "name": "Morong", "province": "BAN", "zip":2108 },
  { "name": "Orani", "province": "BAN", "zip":2112 },
  { "name": "Orion", "province": "BAN", "zip":2102 },
  { "name": "Pilar", "province": "BAN", "zip":2101 },
  { "name": "Samal", "province": "BAN", "zip":2113 }]},
{"Bulacan":
  [{ "name": "Angat", "province": "BUL", "zip": 3012 },
  { "name": "Balagtas", "province": "BUL", "zip": 3016 },
  { "name": "Baliuag", "province": "BUL", "zip": 3006 },
  { "name": "Bocaue", "province": "BUL", "zip": 3018 },
  { "name": "Bulakan", "province": "BUL" , "zip": 3017},
  { "name": "Bustos", "province": "BUL", "zip": 3007 },
  { "name": "Calumpit", "province": "BUL", "zip": 3003 },
  { "name": "Doña Remedios Trinidad", "province": "BUL", "zip": 3009 },
  { "name": "Guiguinto", "province": "BUL", "zip": 3015 },
  { "name": "Hagonoy", "province": "BUL", "zip": 3002 },
  { "name": "Malolos", "province": "BUL", "city": true, "zip": 3000 },
  { "name": "Marilao", "province": "BUL", "zip": 3019 },
  { "name": "Meycauayan", "province": "BUL", "city": true, "zip": 3020 },
  { "name": "Norzagaray", "province": "BUL", "zip": 3013 },
  { "name": "Obando", "province": "BUL", "zip": 3021 },
  { "name": "Pandi", "province": "BUL", "zip": 3014 },
  { "name": "Paombong", "province": "BUL", "zip": 3001 },
  { "name": "Plaridel", "province": "BUL", "zip": 3004 },
  { "name": "Pulilan", "province": "BUL", "zip": 3005 },
  { "name": "San Ildefonso", "province": "BUL", "zip": 3010 },
  { "name": "San Jose del Monte", "province": "BUL", "city": true, "zip": 3023 },
  { "name": "San Miguel", "province": "BUL", "zip": 3011 },
  { "name": "San Rafael", "province": "BUL", "zip": 3008 },
  { "name": "Santa Maria", "province": "BUL", "zip": 3022 }]},
{"Nueva Ecija":
  [{ "name": "Aliaga", "province": "NUE", "zip": 3111 },
  { "name": "Bongabon", "province": "NUE", "zip": 3128 },
  { "name": "Cabanatuan", "province": "NUE", "city": true, "zip": 3100},
  { "name": "Cabiao", "province": "NUE", "zip": 3107 },
  { "name": "Carranglan", "province": "NUE" , "zip": 3123},
  { "name": "Central Luzon State University", "province": "NUE" , "zip": 3120},
  { "name": "Cuyapo", "province": "NUE", "zip": 3117 },
  { "name": "Fort Magsaysay", "province": "NUE", "zip": 3130 },
  { "name": "Gabaldon", "province": "NUE", "zip": 3131 },
  { "name": "Gapan", "province": "NUE", "city": true, "zip": 3105 },
  { "name": "General Mamerto Natividad", "province": "NUE", "zip": 3125 },
  { "name": "General Tinio", "province": "NUE", "zip": 3104 },
  { "name": "Guimba", "province": "NUE", "zip": 3115 },
  { "name": "Jaen", "province": "NUE", "zip": 3109 },
  { "name": "Laur", "province": "NUE", "zip": 3129 },
  { "name": "Licab", "province": "NUE", "zip": 3112 },
  { "name": "Llanera", "province": "NUE", "zip": 3126 },
  { "name": "Lupao", "province": "NUE", "zip": 3122 },
  { "name": "Muñoz", "province": "NUE", "city": true, "zip": 3119 },
  { "name": "Nampicuan", "province": "NUE", "zip": 3116 },
  { "name": "Palayan", "province": "NUE", "city": true, "zip": 3132 },
  { "name": "Pantabangan", "province": "NUE", "zip": 3124 },
  { "name": "Peñaranda", "province": "NUE", "zip": 3103 },
  { "name": "Quezon", "province": "NUE", "zip": 3113 },
  { "name": "Rizal", "province": "NUE", "zip": 3127 },
  { "name": "San Antonio", "province": "NUE", "zip": 3108 },
  { "name": "San Isidro", "province": "NUE", "zip": 3106 },
  { "name": "San Jose", "province": "NUE", "city": true, "zip": 3121 },
  { "name": "San Leonardo", "province": "NUE", "zip": 3102 },
  { "name": "Santa Rosa", "province": "NUE", "zip": 3101 },
  { "name": "Santo Domingo", "province": "NUE", "zip": 3133 },
  { "name": "Talavera", "province": "NUE", "zip": 3114 },
  { "name": "Talugtug", "province": "NUE", "zip": 3118 },
  { "name": "Zaragoza", "province": "NUE", "zip": 3110 }]},
{"Pampanga":
  [{ "name": "Angeles", "province": "PAM", "city": true, "zip": 2009 },
  { "name": "Apalit", "province": "PAM", "zip": 2016 },
  { "name": "Arayat", "province": "PAM", "zip": 2012 },
  { "name": "Bacolor", "province": "PAM", "zip": 2001 },
  { "name": "Basa Airbase", "province": "PAM", "zip": 2007 },
  { "name": "Candaba", "province": "PAM", "zip": 2013 },
  { "name": "Floridablanca", "province": "PAM", "zip": 2006 },
  { "name": "Guagua", "province": "PAM", "zip": 2003 },
  { "name": "Lubao", "province": "PAM", "zip": 2005 },
  { "name": "Mabalacat", "province": "PAM", "city": true, "zip": 2010 },
  { "name": "Macabebe", "province": "PAM", "zip": 2018 },
  { "name": "Magalang", "province": "PAM", "zip": 2011 },
  { "name": "Masantol", "province": "PAM", "zip": 2017 },
  { "name": "Mexico", "province": "PAM", "zip": 2021 },
  { "name": "Minalin", "province": "PAM", "zip": 2019 },
  { "name": "Porac", "province": "PAM", "zip": 2008 },
  { "name": "San Fernando", "province": "PAM", "city": true , "zip": 2000},
  { "name": "San Luis", "province": "PAM", "zip": 2014 },
  { "name": "San Simon", "province": "PAM", "zip": 2015 },
  { "name": "Santa Ana", "province": "PAM", "zip": 2022 },
  { "name": "Santa Rita", "province": "PAM", "zip": 2002 },
  { "name": "Santo Tomas", "province": "PAM" , "zip": 2020 },
  { "name": "Sasmuan", "province": "PAM" , "zip": 2004}]},
{"Tarlac":
  [{ "name": "Anao", "province": "TAR", "zip": 2310 },
  { "name": "Bamban", "province": "TAR", "zip": 2317 },
  { "name": "Camiling", "province": "TAR", "zip": 2306 },
  { "name": "Capas", "province": "TAR", "zip": 2315 },
  { "name": "Concepcion", "province": "TAR", "zip": 2316 },
  { "name": "Gerona", "province": "TAR", "zip": 2302 },
  { "name": "La Paz", "province": "TAR", "zip": 2314 },
  { "name": "Mayantoc", "province": "TAR", "zip": 2304 },
  { "name": "Moncada", "province": "TAR", "zip": 2308 },
  { "name": "Paniqui", "province": "TAR", "zip": 2307 },
  { "name": "Pura", "province": "TAR", "zip": 2312 },
  { "name": "Ramos", "province": "TAR", "zip": 2311 },
  { "name": "San Clemente", "province": "TAR", "zip": 2305 },
  { "name": "San Jose", "province": "TAR", "zip": 2318 },
  { "name": "San Manuel", "province": "TAR", "zip": 2309 },
  { "name": "Santa Ignacia", "province": "TAR", "zip": 2303 },
  { "name": "Tarlac", "province": "TAR", "city": true, "zip": 2300 },
  { "name": "Victoria", "province": "TAR", "zip": 2313 }]},
{"Zambales":
  [{ "name": "Botolan", "province": "ZMB", "zip": 2202 },
  { "name": "Cabangan", "province": "ZMB", "zip": 2203 },
  { "name": "Candelaria", "province": "ZMB", "zip": 2212 },
  { "name": "Castillejos", "province": "ZMB", "zip": 2208 },
  { "name": "Iba", "province": "ZMB", "zip": 2201 },
  { "name": "Masinloc", "province": "ZMB", "zip": 2211 },
  { "name": "Olongapo", "province": "ZMB", "city": true, "zip": 2200 },
  { "name": "Palauig", "province": "ZMB", "zip": 2210 },
  { "name": "San Antonio", "province": "ZMB", "zip": 2206 },
  { "name": "San Felipe", "province": "ZMB", "zip": 2204 },
  { "name": "San Marcelino", "province": "ZMB", "zip": 2207 },
  { "name": "San Narciso", "province": "ZMB" , "zip": 2205},
  { "name": "Santa Cruz", "province": "ZMB" , "zip": 2213},
  { "name": "Subic Freeport zone", "province": "ZMB", "zip": 2222 },
  { "name": "Subic", "province": "ZMB", "zip": 2209 }]},
{"Batangas":
  [{ "name": "Agoncillo", "province": "BTG", "zip": 4211 },
  { "name": "Alitagtag", "province": "BTG", "zip": 4205 },
  { "name": "Balayan", "province": "BTG", "zip": 4213 },
  { "name": "Balete", "province": "BTG", "zip": 4219 },
  { "name": "Batangas", "province": "BTG", "city": true, "zip": 4200 },
  { "name": "Bauan", "province": "BTG", "zip": 4201 },
  { "name": "Calaca", "province": "BTG", "zip": 4212 },
  { "name": "Calatagan", "province": "BTG", "zip": 4215 },
  { "name": "Cuenca", "province": "BTG", "zip": 4222 },
  { "name": "Ibaan", "province": "BTG", "zip": 4230 },
  { "name": "Laurel", "province": "BTG", "zip": 4221 },
  { "name": "Lemery", "province": "BTG" , "zip": 4209},
  { "name": "Lian", "province": "BTG", "zip": 4216 },
  { "name": "Lipa", "province": "BTG", "city": true, "zip": 4217 },
  { "name": "Lobo", "province": "BTG", "zip": 4229 },
  { "name": "Mabini", "province": "BTG", "zip": 4202 },
  { "name": "Malvar", "province": "BTG", "zip": 4233 },
  { "name": "Mataasnakahoy", "province": "BTG", "zip": 4223 },
  { "name": "Nasugbu", "province": "BTG" , "zip": 4231},
  { "name": "Padre Garcia", "province": "BTG" , "zip": 4224},
  { "name": "Rosario", "province": "BTG", "zip": 4225 },
  { "name": "San Jose", "province": "BTG", "zip": 4227 },
  { "name": "San Juan", "province": "BTG" , "zip": 4226},
  { "name": "San Luis", "province": "BTG" , "zip": 4210},
  { "name": "San Nicolas", "province": "BTG", "zip": 4207 },
  { "name": "San Pascual", "province": "BTG", "zip": 4204 },
  { "name": "Santa Teresita", "province": "BTG", "zip": 4206 },
  { "name": "Santo Tomas", "province": "BTG", "zip": 4234 },
  { "name": "Taal", "province": "BTG", "zip": 4208},
  { "name": "Talisay", "province": "BTG", "zip": 4220 },
  { "name": "Tanauan", "province": "BTG", "city": true, "zip": 4232 },
  { "name": "Taysan", "province": "BTG", "zip": 4228 },
  { "name": "Tingloy", "province": "BTG", "zip": 4203 },
  { "name": "Tuy", "province": "BTG", "zip": 4214 }]},
 {"Cavite": 
  [{ "name": "Alfonso", "province": "CAV", "zip": 4123 },
  { "name": "Amadeo", "province": "CAV", "zip": 4119 },
  { "name": "Bacoor", "province": "CAV", "city": true, "zip": 4102 },
  { "name": "Carmona", "province": "CAV", "zip": 4116 },
  { "name": "Cavite", "province": "CAV", "city": true, "zip": 4100 },
  { "name": "Dasmariñas", "province": "CAV", "city": true, "zip": 4114 },
  { "name": "General Mariano Alvarez", "province": "CAV", "zip": 4117 },
  { "name": "General Emilio Aguinaldo", "province": "CAV", "zip": 4124 },
  { "name": "General Trias", "province": "CAV", "zip": 4107 },
  { "name": "Imus", "province": "CAV", "city": true, "zip": 4103 },
  { "name": "Indang", "province": "CAV", "zip": 4122 },
  { "name": "Kawit", "province": "CAV", "zip": 4104 },
  { "name": "Magallanes", "province": "CAV", "zip": 4113 },
  { "name": "Maragondon", "province": "CAV", "zip": 4112 },
  { "name": "Mendez", "province": "CAV", "zip": 4121 },
  { "name": "Naic", "province": "CAV", "zip": 4110 },
  { "name": "Noveleta", "province": "CAV", "zip": 4105 },
  { "name": "Rosario", "province": "CAV", "zip": 4106 },
  { "name": "Silang", "province": "CAV", "zip": 4118 },
  { "name": "Tagaytay", "province": "CAV", "city": true, "zip": 4120 },
  { "name": "Tanza", "province": "CAV", "zip": 4108 },
  { "name": "Ternate", "province": "CAV", "zip": 4111 },
  { "name": "Trece Martires", "province": "CAV", "city": true, "zip": 4109 }]},
{"Laguna":
  [{ "name": "Alaminos", "province": "LAG" , "zip": 4001},
  { "name": "Bay", "province": "LAG", "zip": 4033 },
  { "name": "Biñan", "province": "LAG", "city": true, "zip": 4024 },
  { "name": "Cabuyao", "province": "LAG", "city": true, "zip": 4025 },
  { "name": "Calamba", "province": "LAG", "city": true, "zip": 4027 },
  { "name": "Calauan", "province": "LAG", "zip": 4012 },
  { "name": "Cavinti", "province": "LAG", "zip": 4013 },
  { "name": "Famy", "province": "LAG", "zip": 4021 },
  { "name": "Kalayaan", "province": "LAG", "zip": 4015 },
  { "name": "Liliw", "province": "LAG", "zip": 4004 },
  { "name": "Los Baños", "province": "LAG", "zip": 4030 },
  { "name": "Luisiana", "province": "LAG", "zip": 4032 },
  { "name": "Lumban", "province": "LAG", "zip": 4014 },
  { "name": "Mabitac", "province": "LAG", "zip": 4020 },
  { "name": "Magdalena", "province": "LAG", "zip": 4007 },
  { "name": "Majayjay", "province": "LAG", "zip": 4005 },
  { "name": "Nagcarlan", "province": "LAG", "zip": 4002 },
  { "name": "Paete", "province": "LAG", "zip": 4016 },
  { "name": "Pagsanjan", "province": "LAG", "zip": 4008 },
  { "name": "Pakil", "province": "LAG", "zip": 4017 },
  { "name": "Pangil", "province": "LAG", "zip": 4018 },
  { "name": "Pila", "province": "LAG", "zip": 4010 },
  { "name": "Rizal", "province": "LAG", "zip": 4003 },
  { "name": "San Pablo", "province": "LAG", "city": true, "zip": 4000 },
  { "name": "San Pedro", "province": "LAG", "city": true, "zip": 4023 },
  { "name": "Santa Cruz", "province": "LAG", "zip": 4009 },
  { "name": "Santa Maria", "province": "LAG", "zip": 4022 },
  { "name": "Santa Rosa", "province": "LAG", "city": true, "zip": 4026 },
  { "name": "Siniloan", "province": "LAG", "zip": 4019 },
  { "name": "Victoria", "province": "LAG", "zip": 4011 }]},
{"Quezon":
  [{ "name": "Agdangan", "province": "QUE", "zip": 4304 },
  { "name": "Alabat", "province": "QUE", "zip": 4333 },
  { "name": "Atimonan", "province": "QUE", "zip": 4331 },
  { "name": "Buenavista", "province": "QUE", "zip": 4320 },
  { "name": "Burdeos", "province": "QUE", "zip": 4340 },
  { "name": "Calauag", "province": "QUE", "zip": 4318 },
  { "name": "Candelaria", "province": "QUE", "zip": 4323 },
  { "name": "Catanauan", "province": "QUE", "zip": 4311 },
  { "name": "Dolores", "province": "QUE", "zip": 4326 },
  { "name": "General Luna", "province": "QUE", "zip": 4310 },
  { "name": "General Nakar", "province": "QUE", "zip": 4338 },
  { "name": "Guinayangan", "province": "QUE", "zip": 4319 },
  { "name": "Gumaca", "province": "QUE", "zip": 4307 },
  { "name": "Infanta", "province": "QUE", "zip": 4336 },
  { "name": "Jomalig", "province": "QUE", "zip": 4342 },
  { "name": "Lopez", "province": "QUE", "zip": 4316 },
  { "name": "Lucban", "province": "QUE", "zip": 4328 },
  { "name": "Lucena", "province": "QUE", "city": true, "zip": 4301 },
  { "name": "Macalelon", "province": "QUE", "zip": 4309 },
  { "name": "Mauban", "province": "QUE", "zip": 4330 },
  { "name": "Mulanay", "province": "QUE", "zip": 4312 },
  { "name": "Padre Burgos", "province": "QUE", "zip": 4303 },
  { "name": "Pagbilao", "province": "QUE", "zip": 4302 },
  { "name": "Panukulan", "province": "QUE", "zip": 4337 },
  { "name": "Patnanungan", "province": "QUE", "zip": 4341 },
  { "name": "Perez", "province": "QUE", "zip": 4334 },
  { "name": "Pitogo", "province": "QUE", "zip": 4308 },
  { "name": "Plaridel", "province": "QUE", "zip": 4306 },
  { "name": "Polillo", "province": "QUE", "zip": 4339 },
  { "name": "Quezon", "province": "QUE", "zip": 4332 },
  { "name": "Real", "province": "QUE", "zip": 4335 },
  { "name": "Sampaloc", "province": "QUE", "zip": 4329 },
  { "name": "San Andres", "province": "QUE", "zip": 4314 },
  { "name": "San Antonio", "province": "QUE", "zip": 4324 },
  { "name": "San Francisco", "province": "QUE", "zip": 4315 },
  { "name": "San Narciso", "province": "QUE", "zip": 4313 },
  { "name": "Sariaya", "province": "QUE", "zip": 4322 },
  { "name": "Tagkawayan", "province": "QUE", "zip": 4321 },
  { "name": "Tayabas", "province": "QUE", "city": true, "zip": 4327 },
  { "name": "Tiaong", "province": "QUE", "zip": 4325 },
  { "name": "Unisan", "province": "QUE" , "zip": 4305 }]},
{"Rizal":
  [{ "name": "Angono", "province": "RIZ", "zip": 1930 },
  { "name": "Antipolo", "province": "RIZ", "city": true, "zip": 1870 },
  { "name": "Baras", "province": "RIZ", "zip": 1970 },
  { "name": "Binangonan", "province": "RIZ", "zip": 1940 },
  { "name": "Cainta", "province": "RIZ", "zip": 1900 },
  { "name": "Cardona", "province": "RIZ", "zip": 1950 },
  { "name": "Jalajala", "province": "RIZ" , "zip": 1990},
  { "name": "Morong", "province": "RIZ" , "zip": 1960},
  { "name": "Pililla", "province": "RIZ", "zip": 1910 },
  { "name": "Rodriguez", "province": "RIZ", "zip": 1870},
  { "name": "San Mateo", "province": "RIZ" , "zip": 1950},
  { "name": "Tanay", "province": "RIZ" , "zip": 1980},
  { "name": "Taytay", "province": "RIZ" , "zip": 1920},
  { "name": "Teresa", "province": "RIZ" , "zip": 1980}]},
{"Marinduque":
  [{ "name": "Boac", "province": "MAD", "zip": 4900 },
  { "name": "Buenavista", "province": "MAD", "zip": 4904 },
  { "name": "Gasan", "province": "MAD", "zip": 4905 },
  { "name": "Mogpog", "province": "MAD" , "zip": 4901},
  { "name": "Santa Cruz", "province": "MAD", "zip": 4902 },
  { "name": "Torrijos", "province": "MAD", "zip": 4903 }]},
{"Occidental Mindoro":
  [{ "name": "Abra de Ilog", "province": "MDC", "zip": 5108 },
  { "name": "Calintaan", "province": "MDC", "zip": 5102 },
  { "name": "Looc", "province": "MDC", "zip": 5111 },
  { "name": "Lubang", "province": "MDC", "zip": 5101 },
  { "name": "Magsaysay", "province": "MDC", "zip": 51 },
  { "name": "Mamburao", "province": "MDC", "zip": 5106 },
  { "name": "Paluan", "province": "MDC", "zip": 5107 },
  { "name": "Rizal", "province": "MDC", "zip": 5103 },
  { "name": "Sablayan", "province": "MDC", "zip": 5104 },
  { "name": "San Jose", "province": "MDC", "zip": 5100 },
  { "name": "Santa Cruz", "province": "MDC", "zip": 5105 }]},
{"Oriental Mindoro":
  [{ "name": "Baco", "province": "MDR", "zip": 5201 },
  { "name": "Bansud", "province": "MDR", "zip": 5210 },
  { "name": "Bongabong", "province": "MDR", "zip": 5211 },
  { "name": "Bulalacao", "province": "MDR", "zip": 5214 },
  { "name": "Calapan", "province": "MDR", "city": true , "zip": 5200},
  { "name": "Gloria", "province": "MDR", "zip": 5209 },
  { "name": "Mansalay", "province": "MDR", "zip": 5213 },
  { "name": "Naujan", "province": "MDR", "zip": 5204 },
  { "name": "Pinamalayan", "province": "MDR", "zip": 5208 },
  { "name": "Pola", "province": "MDR", "zip": 5206 },
  { "name": "Puerto Galera", "province": "MDR", "zip": 5203 },
  { "name": "Roxas", "province": "MDR", "zip": 5212 },
  { "name": "San Teodoro", "province": "MDR", "zip": 5202 },
  { "name": "Socorro", "province": "MDR", "zip": 5207 },
  { "name": "Victoria", "province": "MDR", "zip": 5208 }]},
{"Palawan":
  [{ "name": "Aborlan", "province": "PLW", "zip": 5302 },
  { "name": "Agutaya", "province": "PLW", "zip": 5320 },
  { "name": "Araceli", "province": "PLW", "zip": 5311 },
  { "name": "Balabac", "province": "PLW", "zip": 5307 },
  { "name": "Bataraza", "province": "PLW", "zip": 5306 },
  { "name": "Brooke's Point", "province": "PLW", "zip": 5305 },
  { "name": "Busuanga", "province": "PLW", "zip": 5317 },
  { "name": "Cagayancillo", "province": "PLW", "zip": 5321 },
  { "name": "Coron", "province": "PLW", "zip": 5316 },
  { "name": "Culion", "province": "PLW", "zip": 5315 },
  { "name": "Cuyo", "province": "PLW", "zip": 5318 },
  { "name": "Dumaran", "province": "PLW", "zip": 5310 },
  { "name": "El Nido", "province": "PLW", "zip": 5313 },
  { "name": "Kalayaan", "province": "PLW", "zip": 5322 },
  { "name": "Linapacan", "province": "PLW", "zip": 5314 },
  { "name": "Magsaysay", "province": "PLW", "zip": 5319 },
  { "name": "Narra", "province": "PLW", "zip": 5303 },
  { "name": "Puerto Princesa", "province": "PLW", "city": true , "zip": 5300},
  { "name": "Quezon", "province": "PLW", "zip": 5304 },
  { "name": "Roxas", "province": "PLW", "zip": 5308 },
  { "name": "San Vicente", "province": "PLW" , "zip": 5309},
  { "name": "Taytay", "province": "PLW", "zip": 5312 }]},
{"Romblon":
  [{ "name": "Alcantara", "province": "ROM", "zip": 5509 },
  { "name": "Banton", "province": "ROM", "zip": 5515 },
  { "name": "Cajidiocan", "province": "ROM", "zip": 5512 },
  { "name": "Calatrava", "province": "ROM", "zip": 5503 },
  { "name": "Concepcion", "province": "ROM" , "zip": 5516},
  { "name": "Corcuera", "province": "ROM" , "zip": 5514},
  { "name": "Ferrol", "province": "ROM", "zip": 5506 },
  { "name": "Looc", "province": "ROM", "zip": 5507 },
  { "name": "Magdiwang", "province": "ROM", "zip": 5511 },
  { "name": "Odiongan", "province": "ROM", "zip": 5505 },
  { "name": "Romblon", "province": "ROM" , "zip": 5500},
  { "name": "San Agustin", "province": "ROM" , "zip": 5501},
  { "name": "San Andres", "province": "ROM", "zip": 5504 },
  { "name": "San Fernando", "province": "ROM", "zip": 5513 },
  { "name": "San Jose", "province": "ROM", "zip": 5510 },
  { "name": "Santa Fe", "province": "ROM", "zip": 5508 },
  { "name": "Santa Maria", "province": "ROM", "zip": 5522 }]},
{"Albay":
  [{ "name": "Bacacay", "province": "ALB", "zip": 4509 },
  { "name": "Camalig", "province": "ALB", "zip": 4502 },
  { "name": "Daraga", "province": "ALB", "zip": 4501 },
  { "name": "Guinobatan", "province": "ALB", "zip": 4503 },
  { "name": "Jovellar", "province": "ALB", "zip": 4515 },
  { "name": "Legazpi", "province": "ALB", "city": true , "zip": 4500},
  { "name": "Libon", "province": "ALB", "zip": 4507 },
  { "name": "Ligao", "province": "ALB", "city": true, "zip": 4504 },
  { "name": "Malilipot", "province": "ALB", "zip": 4510 },
  { "name": "Malinao", "province": "ALB", "zip": 4512 },
  { "name": "Manito", "province": "ALB", "zip": 4514 },
  { "name": "Oas", "province": "ALB", "zip": 4505 },
  { "name": "Pio Duran", "province": "ALB", "zip": 4516 },
  { "name": "Polangui", "province": "ALB", "zip": 4506 },
  { "name": "Rapu-Rapu", "province": "ALB", "zip": 4517 },
  { "name": "Santo Domingo", "province": "ALB", "zip": 4508 },
  { "name": "Tabaco", "province": "ALB", "city": true, "zip": 4511 },
  { "name": "Tiwi", "province": "ALB", "zip": 4513 }]},
{"Camarines Norte":
  [{ "name": "Basud", "province": "CAN", "zip": 4608 },
  { "name": "Capalonga", "province": "CAN", "zip": 4607 },
  { "name": "Daet", "province": "CAN", "zip": 4600 },
  { "name": "Jose Panganiban", "province": "CAN", "zip": 4606 },
  { "name": "Labo", "province": "CAN", "zip": 4604 },
  { "name": "Mercedes", "province": "CAN", "zip": 4601 },
  { "name": "Paracale", "province": "CAN", "zip": 4605 },
  { "name": "San Lorenzo Ruiz", "province": "CAN", "zip": 4610 },
  { "name": "San Vicente", "province": "CAN", "zip": 4609 },
  { "name": "Santa Elena", "province": "CAN", "zip": 4611 },
  { "name": "Talisay", "province": "CAN", "zip": 4602 },
  { "name": "Vinzons", "province": "CAN", "zip": 4603 }]},
{"Camarines Sur":
  [{ "name": "Baao", "province": "CAS", "zip": 4432 },
  { "name": "Balatan", "province": "CAS", "zip": 4436 },
  { "name": "Bato", "province": "CAS", "zip": 4435 },
  { "name": "Bombon", "province": "CAS", "zip": 4404 },
  { "name": "Buhi", "province": "CAS", "zip": 4433 },
  { "name": "Bula", "province": "CAS", "zip": 4430 },
  { "name": "Cabusao", "province": "CAS", "zip": 4406 },
  { "name": "Calabanga", "province": "CAS", "zip": 4405 },
  { "name": "Camaligan", "province": "CAS", "zip": 4401 },
  { "name": "Canaman", "province": "CAS", "zip": 4402 },
  { "name": "Caramoan", "province": "CAS", "zip": 4429 },
  { "name": "Del Gallego", "province": "CAS", "zip": 4411 },
  { "name": "Gainza", "province": "CAS", "zip": 4412 },
  { "name": "Garchitorena", "province": "CAS", "zip": 4428 },
  { "name": "Goa", "province": "CAS", "zip": 4422 },
  { "name": "Iriga", "province": "CAS", "city": true, "zip": 4431 },
  { "name": "Lagonoy", "province": "CAS", "zip": 4425 },
  { "name": "Libmanan", "province": "CAS", "zip": 4407 },
  { "name": "Lupi", "province": "CAS", "zip": 4409 },
  { "name": "Magarao", "province": "CAS", "zip": 4403 },
  { "name": "Milaor", "province": "CAS", "zip": 4413 },
  { "name": "Minalabac", "province": "CAS", "zip": 4414 },
  { "name": "Nabua", "province": "CAS", "zip": 4434 },
  { "name": "Naga", "province": "CAS", "city": true, "zip": 4400 },
  { "name": "Ocampo", "province": "CAS", "zip": 4419 },
  { "name": "Pamplona", "province": "CAS", "zip": 4416 },
  { "name": "Pasacao", "province": "CAS", "zip": 4417 },
  { "name": "Pili", "province": "CAS", "zip": 4418 },
  { "name": "Presentacion", "province": "CAS", "zip": 4424 },
  { "name": "Ragay", "province": "CAS", "zip": 4410 },
  { "name": "Sagñay", "province": "CAS", "zip": 4421 },
  { "name": "San Fernando", "province": "CAS", "zip": 4415 },
  { "name": "San Jose", "province": "CAS", "zip": 4423 },
  { "name": "Sipocot", "province": "CAS", "zip": 4408 },
  { "name": "Siruma", "province": "CAS", "zip": 4427 },
  { "name": "Tigaon", "province": "CAS", "zip": 4420 },
  { "name": "Tinambac", "province": "CAS", "zip": 4426 }]},
{"Catanduanes":
  [{ "name": "Bagamanoc", "province": "CAT", "zip": 4807},
  { "name": "Baras", "province": "CAT", "zip": 4803 },
  { "name": "Bato", "province": "CAT", "zip": 4801 },
  { "name": "Caramoran", "province": "CAT", "zip": 4808 },
  { "name": "Gigmoto", "province": "CAT", "zip": 4804 },
  { "name": "Pandan", "province": "CAT", "zip": 4809 },
  { "name": "Panganiban", "province": "CAT", "zip": 4806 },
  { "name": "San Andres", "province": "CAT", "zip": 4810 },
  { "name": "San Miguel", "province": "CAT", "zip": 4802 },
  { "name": "Viga", "province": "CAT", "zip": 4805 },
  { "name": "Virac", "province": "CAT", "zip": 4800 }]},
{"Masbate":
  [{ "name": "Aroroy", "province": "MAS", "zip": 5414 },
  { "name": "Baleno", "province": "MAS", "zip": 5413 },
  { "name": "Balud", "province": "MAS", "zip": 5412 },
  { "name": "Batuan", "province": "MAS", "zip": 5415 },
  { "name": "Cataingan", "province": "MAS", "zip": 5405 },
  { "name": "Cawayan", "province": "MAS", "zip": 5409 },
  { "name": "Claveria", "province": "MAS", "zip": 5419 },
  { "name": "Dimasalang", "province": "MAS", "zip": 5403 },
  { "name": "Esperanza", "province": "MAS", "zip": 5407 },
  { "name": "Mandaon", "province": "MAS", "zip": 5411 },
  { "name": "Masbate", "province": "MAS", "city": true, "zip": 5400 },
  { "name": "Milagros", "province": "MAS", "zip": 5410 },
  { "name": "Mobo", "province": "MAS", "zip": 5401 },
  { "name": "Monreal", "province": "MAS" , "zip": 5418},
  { "name": "Palanas", "province": "MAS" , "zip": 5404},
  { "name": "Pio V. Corpuz", "province": "MAS" , "zip": 5406},
  { "name": "Placer", "province": "MAS", "zip": 5408 },
  { "name": "San Fernando", "province": "MAS", "zip": 5416 },
  { "name": "San Jacinto", "province": "MAS", "zip": 5417 },
  { "name": "San Pascual", "province": "MAS", "zip": 5420 },
  { "name": "Uson", "province": "MAS", "zip": 5402 }]},
 {"Sorsogon": 
  [{ "name": "Barcelona", "province": "SOR", "zip": 4712 },
  { "name": "Bulan", "province": "SOR", "zip": 4706 },
  { "name": "Bulusan", "province": "SOR", "zip": 4704 },
  { "name": "Casiguran", "province": "SOR", "zip": 4702 },
  { "name": "Castilla", "province": "SOR", "zip": 4713 },
  { "name": "Donsol", "province": "SOR", "zip": 4715 },
  { "name": "Gubat", "province": "SOR", "zip": 4710 },
  { "name": "Irosin", "province": "SOR", "zip": 4707 },
  { "name": "Juban", "province": "SOR", "zip": 4703 },
  { "name": "Magallanes", "province": "SOR", "zip": 4705 },
  { "name": "Matnog", "province": "SOR" , "zip": 4708},
  { "name": "Pilar", "province": "SOR", "zip": 4714 },
  { "name": "Prieto Diaz", "province": "SOR", "zip": 4711 },
  { "name": "Santa Magdalena", "province": "SOR", "zip": 4709 },
  { "name": "Sorsogon", "province": "SOR", "city": true, "zip": 4700 }]},
{"Aklan":
  [{ "name": "Altavas", "province": "AKL", "zip": 5616 },
  { "name": "Balete", "province": "AKL", "zip": 5614 },
  { "name": "Banga", "province": "AKL", "zip": 5601 },
  { "name": "Batan", "province": "AKL", "zip": 5615 },
  { "name": "Buruanga", "province": "AKL", "zip": 5609 },
  { "name": "Ibajay", "province": "AKL", "zip": 5613 },
  { "name": "Kalibo", "province": "AKL", "zip": 5600 },
  { "name": "Lezo", "province": "AKL", "zip": 5605 },
  { "name": "Libacao", "province": "AKL", "zip": 5602 },
  { "name": "Madalag", "province": "AKL", "zip": 5603 },
  { "name": "Makato", "province": "AKL", "zip": 5611 },
  { "name": "Malay", "province": "AKL", "zip": 5608 },
  { "name": "Malinao", "province": "AKL", "zip": 5606 },
  { "name": "Nabas", "province": "AKL", "zip": 5607 },
  { "name": "New Washington", "province": "AKL", "zip": 5610 },
  { "name": "Numancia", "province": "AKL", "zip": 5604 },
  { "name": "Tangalan", "province": "AKL", "zip": 5612 }]},
{"Antique":
  [{ "name": "Anini-y", "province": "ANT", "zip": 5717 },
  { "name": "Barbaza", "province": "ANT", "zip": 5706 },
  { "name": "Belison", "province": "ANT", "zip": 5701 },
  { "name": "Bugasong", "province": "ANT", "zip": 5704 },
  { "name": "Caluya", "province": "ANT", "zip": 5711 },
  { "name": "Culasi", "province": "ANT", "zip": 5708 },
  { "name": "Hamtic", "province": "ANT", "zip": 5715 },
  { "name": "Laua-an", "province": "ANT", "zip": 5705 },
  { "name": "Libertad", "province": "ANT", "zip": 5710 },
  { "name": "Pandan", "province": "ANT", "zip": 5712 },
  { "name": "Patnongon", "province": "ANT", "zip": 5702 },
  { "name": "San Jose", "province": "ANT", "zip": 5700 },
  { "name": "San Remigio", "province": "ANT", "zip": 5714 },
  { "name": "Sebaste", "province": "ANT", "zip": 5709 },
  { "name": "Sibalom", "province": "ANT", "zip": 5713 },
  { "name": "Tibiao", "province": "ANT", "zip": 5707 },
  { "name": "Tobias Fornier", "province": "ANT", "zip": 5716 },
  { "name": "Valderrama", "province": "ANT", "zip": 5703 }]},
{"Capiz":
  [{ "name": "Cuartero", "province": "CAP", "zip": 5811 },
  { "name": "Dao", "province": "CAP", "zip": 5810 },
  { "name": "Dumalag", "province": "CAP", "zip": 5813 },
  { "name": "Dumarao", "province": "CAP", "zip": 5812 },
  { "name": "Ivisan", "province": "CAP", "zip": 5805 },
  { "name": "Jamindan", "province": "CAP", "zip": 5808 },
  { "name": "Maayon", "province": "CAP", "zip": 5809 },
  { "name": "Mambusao", "province": "CAP", "zip": 5807 },
  { "name": "Panay", "province": "CAP", "zip": 5801 },
  { "name": "Panitan", "province": "CAP", "zip": 5815 },
  { "name": "Pilar", "province": "CAP", "zip": 5804 },
  { "name": "Pontevedra", "province": "CAP", "zip": 5802 },
  { "name": "President Roxas", "province": "CAP", "zip": 5803 },
  { "name": "Roxas", "province": "CAP", "city": true, "zip": 5800 },
  { "name": "Sapian", "province": "CAP", "zip": 5806 },
  { "name": "Sigma", "province": "CAP", "zip": 5816 },
  { "name": "Tapaz", "province": "CAP", "zip": 5814 }]},
{"Guimaras":
  [{ "name": "Buenavista", "province": "GUI", "zip": 5044 },
  { "name": "Jordan", "province": "GUI", "zip": 5045 },
  { "name": "Nueva Valencia", "province": "GUI", "zip": 5046 },
  { "name": "San Lorenzo", "province": "GUI", "zip": 5047 },
  { "name": "Sibunag", "province": "GUI", "zip": 5048 }]},
{"Iloilo":
  [{ "name": "Ajuy", "province": "ILI", "zip": 5012 },
  { "name": "Alimodian", "province": "ILI", "zip": 5028 },
  { "name": "Anilao", "province": "ILI", "zip": 5009 },
  { "name": "Badiangan", "province": "ILI", "zip": 5033 },
  { "name": "Balasan", "province": "ILI", "zip": 5018 },
  { "name": "Banate", "province": "ILI", "zip": 5010 },
  { "name": "Barotac Nuevo", "province": "ILI", "zip": 5007 },
  { "name": "Barotac Viejo", "province": "ILI", "zip": 5011 },
  { "name": "Batad", "province": "ILI", "zip": 5016 },
  { "name": "Bingawan", "province": "ILI", "zip": 5041 },
  { "name": "Cabatuan", "province": "ILI", "zip": 5031 },
  { "name": "Calinog", "province": "ILI", "zip": 5040 },
  { "name": "Carles", "province": "ILI", "zip": 5019 },
  { "name": "Concepcion", "province": "ILI", "zip": 5013 },
  { "name": "Dingle", "province": "ILI", "zip": 5035 },
  { "name": "Dueñas", "province": "ILI", "zip": 5038 },
  { "name": "Dumangas", "province": "ILI", "zip": 5006 },
  { "name": "Estancia", "province": "ILI", "zip": 5017 },
  { "name": "Guimbal", "province": "ILI", "zip": 5022 },
  { "name": "Igbaras", "province": "ILI", "zip": 5029 },
  { "name": "Iloilo", "province": "ILI", "city": true, "zip": 5000 },
  { "name": "Janiuay", "province": "ILI", "zip": 5034 },
  { "name": "Lambunao", "province": "ILI", "zip": 5042 },
  { "name": "Leganes", "province": "ILI", "zip": 5003 },
  { "name": "Lemery", "province": "ILI", "zip": 5043 },
  { "name": "Leon", "province": "ILI", "zip": 5026 },
  { "name": "Maasin", "province": "ILI", "zip": 5030 },
  { "name": "Miagao", "province": "ILI", "zip": 5023 },
  { "name": "Mina", "province": "ILI", "zip": 5032 },
  { "name": "New Lucena", "province": "ILI", "zip": 5005 },
  { "name": "Oton", "province": "ILI", "zip": 5020 },
  { "name": "Passi", "province": "ILI", "city": true, "zip": 5037 },
  { "name": "Pavia", "province": "ILI", "zip": 5001 },
  { "name": "Pototan", "province": "ILI", "zip": 5008 },
  { "name": "San Dionisio", "province": "ILI", "zip": 5015 },
  { "name": "San Enrique", "province": "ILI", "zip": 5036 },
  { "name": "San Joaquin", "province": "ILI", "zip": 5024 },
  { "name": "San Miguel", "province": "ILI", "zip": 5025 },
  { "name": "San Rafael", "province": "ILI", "zip": 5039 },
  { "name": "Santa Barbara", "province": "ILI", "zip": 5002 },
  { "name": "Sara", "province": "ILI", "zip": 5014 },
  { "name": "Tigbauan", "province": "ILI", "zip": 5021 },
  { "name": "Tubungan", "province": "ILI", "zip": 5027 },
  { "name": "Zarraga", "province": "ILI", "zip": 5004 }]},
{"Negros Occidental":
  [{ "name": "Bacolod", "province": "NEC", "city": true, "zip": 6100 },
  { "name": "Bago", "province": "NEC", "city": true, "zip": 6101 },
  { "name": "Binalbagan", "province": "NEC", "zip": 6107 },
  { "name": "Cadiz", "province": "NEC", "city": true, "zip": 6121 },
  { "name": "Calatrava", "province": "NEC", "zip": 6126 },
  { "name": "Candoni", "province": "NEC", "zip": 6110 },
  { "name": "Cauayan", "province": "NEC", "zip": 6112 },
  { "name": "Enrique B. Magalona", "province": "NEC", "zip": 6118 },
  { "name": "Escalante", "province": "NEC", "city": true, "zip": 6124 },
  { "name": "Himamaylan", "province": "NEC", "city": true, "zip": 6108 },
  { "name": "Hinigaran", "province": "NEC", "zip": 6106 },
  { "name": "Hinoba-an", "province": "NEC" , "zip": 6114},
  { "name": "Ilog", "province": "NEC", "zip": 6109 },
  { "name": "Isabela", "province": "NEC", "zip": 6128 },
  { "name": "Kabankalan", "province": "NEC", "city": true, "zip": 6111 },
  { "name": "La Carlota", "province": "NEC", "city": true , "zip": 6130},
  { "name": "La Castellana", "province": "NEC", "zip": 6131 },
  { "name": "Manapla", "province": "NEC", "zip": 6120 },
  { "name": "Moises Padilla", "province": "NEC", "zip": 6132 },
  { "name": "Murcia", "province": "NEC", "zip": 6129 },
  { "name": "Pontevedra", "province": "NEC", "zip": 6105 },
  { "name": "Pulupandan", "province": "NEC", "zip": 6102 },
  { "name": "Sagay", "province": "NEC", "city": true, "zip": 6122 },
  { "name": "San Carlos", "province": "NEC", "city": true, "zip": 6127 },
  { "name": "San Enrique", "province": "NEC", "zip": 6104 },
  { "name": "Silay", "province": "NEC", "city": true, "zip": 6116 },
  { "name": "Sipalay", "province": "NEC", "city": true, "zip": 6113 },
  { "name": "Talisay", "province": "NEC", "city": true, "zip": 6115 },
  { "name": "Toboso", "province": "NEC", "zip": 6125 },
  { "name": "Valladolid", "province": "NEC", "zip": 6103 },
  { "name": "Victorias", "province": "NEC", "city": true, "zip": 6119 }]},
{"Bohol":
  [{ "name": "Alburquerque", "province": "BOH", "zip": 6302 },
  { "name": "Alicia", "province": "BOH", "zip": 6314 },
  { "name": "Anda", "province": "BOH", "zip": 6311 },
  { "name": "Antequera", "province": "BOH", "zip": 6336 },
  { "name": "Baclayon", "province": "BOH", "zip": 6301 },
  { "name": "Balilihan", "province": "BOH", "zip": 6342 },
  { "name": "Batuan", "province": "BOH", "zip": 6318 },
  { "name": "Bien Unido", "province": "BOH", "zip": 6326 },
  { "name": "Bilar", "province": "BOH", "zip": 6317 },
  { "name": "Buenavista", "province": "BOH" , "zip": 6333},
  { "name": "Calape", "province": "BOH", "zip": 6328 },
  { "name": "Candijay", "province": "BOH", "zip": 6312 },
  { "name": "Carmen", "province": "BOH", "zip": 6319 },
  { "name": "Catigbian", "province": "BOH", "zip": 6343 },
  { "name": "Clarin", "province": "BOH", "zip": 6330 },
  { "name": "Corella", "province": "BOH", "zip": 6337 },
  { "name": "Cortes", "province": "BOH", "zip": 6341 },
  { "name": "Dagohoy", "province": "BOH", "zip": 6322 },
  { "name": "Danao", "province": "BOH", "zip": 6344 },
  { "name": "Dauis", "province": "BOH", "zip": 6339 },
  { "name": "Dimiao", "province": "BOH", "zip": 6305 },
  { "name": "Duero", "province": "BOH", "zip": 6309 },
  { "name": "Garcia Hernandez", "province": "BOH", "zip": 6307 },
  { "name": "Jetafe", "province": "BOH", "zip": 6334 },
  { "name": "Guindulman", "province": "BOH", "zip": 6310 },
  { "name": "Inabanga", "province": "BOH", "zip": 6332 },
  { "name": "Jagna", "province": "BOH", "zip": 6308 },
  { "name": "Lila", "province": "BOH", "zip": 6304 },
  { "name": "Loay", "province": "BOH", "zip": 6303 },
  { "name": "Loboc", "province": "BOH", "zip": 6316 },
  { "name": "Loon", "province": "BOH", "zip": 6327 },
  { "name": "Mabini", "province": "BOH", "zip": 6313 },
  { "name": "Maribojoc", "province": "BOH", "zip": 6336 },
  { "name": "Panglao", "province": "BOH", "zip": 6340 },
  { "name": "Pilar", "province": "BOH", "zip": 6321 },
  { "name": "President Carlos P. Garcia", "province": "BOH", "zip": 6346 },
  { "name": "Sagbayan", "province": "BOH", "zip": 6331 },
  { "name": "San Isidro", "province": "BOH", "zip": 6345 },
  { "name": "San Miguel", "province": "BOH", "zip": 6323 },
  { "name": "Sevilla", "province": "BOH", "zip": 6347 },
  { "name": "Sierra Bullones", "province": "BOH" , "zip": 6320},
  { "name": "Sikatuna", "province": "BOH", "zip": 6338 },
  { "name": "Tagbilaran", "province": "BOH", "city": true, "zip": 6300 },
  { "name": "Talibon", "province": "BOH", "zip": 6325 },
  { "name": "Trinidad", "province": "BOH", "zip": 6324 },
  { "name": "Tubigon", "province": "BOH", "zip": 6329 },
  { "name": "Ubay", "province": "BOH", "zip": 6315 },
  { "name": "Valencia", "province": "BOH", "zip": 6306 }]},
{"Cebu":
  [{ "name": "Alcantara", "province": "CEB", "zip": 6033 },
  { "name": "Alcoy", "province": "CEB", "zip": 6023  },
  { "name": "Alegria", "province": "CEB", "zip": 6030  },
  { "name": "Aloguinsan", "province": "CEB", "zip": 6040  },
  { "name": "Argao", "province": "CEB", "zip": 6021  },
  { "name": "Asturias", "province": "CEB", "zip": 6042  },
  { "name": "Badian", "province": "CEB", "zip": 6031  },
  { "name": "Balamban", "province": "CEB", "zip": 6041  },
  { "name": "Bantayan", "province": "CEB", "zip": 6052  },
  { "name": "Barili", "province": "CEB", "zip": 6036  },
  { "name": "Bogo", "province": "CEB", "city": true, "zip": 6010  },
  { "name": "Boljoon", "province": "CEB", "zip": 6024  },
  { "name": "Borbon", "province": "CEB", "zip": 6008  },
  { "name": "Carcar", "province": "CEB", "city": true, "zip": 6019  },
  { "name": "Carmen", "province": "CEB", "zip": 6005  },
  { "name": "Catmon", "province": "CEB", "zip": 6006  },
  { "name": "Cebu", "province": "CEB", "city": true, "zip": 6000  },
  { "name": "Compostela", "province": "CEB", "zip": 6003  },
  { "name": "Consolacion", "province": "CEB", "zip": 6001  },
  { "name": "Cordova", "province": "CEB", "zip": 6017  },
  { "name": "Daanbantayan", "province": "CEB", "zip": 6013  },
  { "name": "Dalaguete", "province": "CEB", "zip": 6022  },
  { "name": "Danao", "province": "CEB", "city": true, "zip": 6004  },
  { "name": "Dumanjug", "province": "CEB", "zip": 6035  },
  { "name": "Ginatilan", "province": "CEB", "zip": 6028  },
  { "name": "Lapu-Lapu", "province": "CEB", "city": true, "zip": 6015  },
  { "name": "Liloan", "province": "CEB", "zip": 6002  },
  { "name": "Madridejos", "province": "CEB", "zip": 6053  },
  { "name": "Malabuyoc", "province": "CEB", "zip": 6029  },
  { "name": "Mandaue", "province": "CEB", "city": true, "zip": 6014  },
  { "name": "Medellin", "province": "CEB", "zip": 6012  },
  { "name": "Minglanilla", "province": "CEB", "zip": 6046  },
  { "name": "Moalboal", "province": "CEB", "zip": 6032  },
  { "name": "Naga", "province": "CEB", "city": true, "zip": 6037  },
  { "name": "Oslob", "province": "CEB", "zip": 6025  },
  { "name": "Pilar", "province": "CEB", "zip": 6048  },
  { "name": "Pinamungajan", "province": "CEB", "zip": 6039  },
  { "name": "Poro", "province": "CEB", "zip": 6049  },
  { "name": "Ronda", "province": "CEB", "zip": 6034  },
  { "name": "Samboan", "province": "CEB", "zip": 6027  },
  { "name": "San Fernando", "province": "CEB", "zip": 6018  },
  { "name": "San Francisco", "province": "CEB", "zip": 6050  },
  { "name": "San Remigio", "province": "CEB", "zip": 6011  },
  { "name": "Santa Fe", "province": "CEB", "zip": 6047  },
  { "name": "Santander", "province": "CEB", "zip": 6026  },
  { "name": "Sibonga", "province": "CEB", "zip": 6020  },
  { "name": "Sogod", "province": "CEB", "zip": 6007  },
  { "name": "Tabogon", "province": "CEB", "zip": 6009  },
  { "name": "Tabuelan", "province": "CEB", "zip": 6044  },
  { "name": "Talisay", "province": "CEB", "city": true, "zip": 6045  },
  { "name": "Toledo", "province": "CEB", "city": true, "zip": 6038  },
  { "name": "Tuburan", "province": "CEB", "zip": 6043  },
  { "name": "Tudela", "province": "CEB", "zip": 6051  }]},
 {"Negros Oriental": 
  [{ "name": "Amlan", "province": "NER", "zip": 6203 },
  { "name": "Ayungon", "province": "NER", "zip": 6210 },
  { "name": "Bacong", "province": "NER", "zip": 6216 },
  { "name": "Bais", "province": "NER", "city": true, "zip": 6217 },
  { "name": "Basay", "province": "NER", "zip": 6222 },
  { "name": "Bayawan", "province": "NER", "city": true, "zip": 6221 },
  { "name": "Bindoy", "province": "NER", "zip": 6209 },
  { "name": "Canlaon", "province": "NER", "city": true, "zip": 6223 },
  { "name": "Dauin", "province": "NER", "zip": 6217 },
  { "name": "Dumaguete", "province": "NER", "city": true, "zip": 6200 },
  { "name": "Guihulngan", "province": "NER", "city": true, "zip": 6214 },
  { "name": "Jimalalud", "province": "NER", "zip": 6212 },
  { "name": "La Libertad", "province": "NER", "zip": 6213 },
  { "name": "Mabinay", "province": "NER", "zip": 6207 },
  { "name": "Manjuyod", "province": "NER" , "zip": 6208},
  { "name": "Pamplona", "province": "NER", "zip": 6205 },
  { "name": "San Jose", "province": "NER", "zip": 6202 },
  { "name": "Santa Catalina", "province": "NER", "zip": 6220 },
  { "name": "Siaton", "province": "NER", "zip": 6219 },
  { "name": "Sibulan", "province": "NER" , "zip": 6201},
  { "name": "Tanjay", "province": "NER", "city": true , "zip": 6204},
  { "name": "Tayasan", "province": "NER" , "zip": 6211},
  { "name": "Valencia", "province": "NER" , "zip": 6215},
  { "name": "Vallehermoso", "province": "NER" , "zip": 6224},
  { "name": "Zamboanguita", "province": "NER" , "zip": 6218}]},
{"Siquijor":
  [{ "name": "Enrique Villanueva", "province": "SIG", "zip": 6230 },
  { "name": "Larena", "province": "SIG", "zip": 6226 },
  { "name": "Lazi", "province": "SIG" , "zip": 6228},
  { "name": "Maria", "province": "SIG" , "zip": 6229},
  { "name": "San Juan", "province": "SIG" , "zip": 6227},
  { "name": "Siquijor", "province": "SIG" , "zip": 6225}]},
{"Biliran":
  [{ "name": "Almeria", "province": "BIL", "zip": 6544 },
  { "name": "Biliran", "province": "BIL", "zip": 6549 },
  { "name": "Cabucgayan", "province": "BIL", "zip": 6550 },
  { "name": "Caibiran", "province": "BIL", "zip": 6548 },
  { "name": "Culaba", "province": "BIL", "zip": 6547 },
  { "name": "Kawayan", "province": "BIL", "zip": 6545 },
  { "name": "Maripipi", "province": "BIL" , "zip": 6546},
  { "name": "Naval", "province": "BIL", "zip": 6543 }]},
{"Eastern Samar":
  [{ "name": "Arteche", "province": "EAS", "zip": 6822 },
  { "name": "Balangiga", "province": "EAS", "zip": 6812 },
  { "name": "Balangkayan", "province": "EAS", "zip": 6801 },
  { "name": "Borongan", "province": "EAS", "city": true, "zip": 6800 },
  { "name": "Can-avid", "province": "EAS", "zip": 6806 },
  { "name": "Dolores", "province": "EAS", "zip": 6817 },
  { "name": "General MacArthur", "province": "EAS", "zip": 6805 },
  { "name": "Giporlos", "province": "EAS", "zip": 6811 },
  { "name": "Guiuan", "province": "EAS", "zip": 6809 },
  { "name": "Hernani", "province": "EAS", "zip": 6804 },
  { "name": "Jipapad", "province": "EAS", "zip": 6819 },
  { "name": "Lawaan", "province": "EAS", "zip": 6813 },
  { "name": "Llorente", "province": "EAS", "zip": 6803 },
  { "name": "Maslog", "province": "EAS", "zip": 6820 },
  { "name": "Maydolong", "province": "EAS", "zip": 6802 },
  { "name": "Mercedes", "province": "EAS", "zip": 6808 },
  { "name": "Oras", "province": "EAS", "zip": 6818 },
  { "name": "Quinapondan", "province": "EAS", "zip": 6810 },
  { "name": "Salcedo", "province": "EAS", "zip": 6807 },
  { "name": "San Julian", "province": "EAS", "zip": 6814 },
  { "name": "San Policarpo", "province": "EAS", "zip": 6821 },
  { "name": "Sulat", "province": "EAS", "zip": 6815 },
  { "name": "Taft", "province": "EAS", "zip": 6816 }]},
{"Leyte":
  [{ "name": "Abuyog", "province": "LEY" , "zip": 6510},
  { "name": "Alangalang", "province": "LEY", "zip": 6517 },
  { "name": "Albuera", "province": "LEY" , "zip": 6542},
  { "name": "Babatngon", "province": "LEY" , "zip": 6520},
  { "name": "Barugo", "province": "LEY" , "zip": 6519},
  { "name": "Bato", "province": "LEY" , "zip": 6525},
  { "name": "Baybay", "province": "LEY", "city": true , "zip": 6521},
  { "name": "Burauen", "province": "LEY", "zip": 6516 },
  { "name": "Calubian", "province": "LEY", "zip": 6534 }, 
  { "name": "Capoocan", "province": "LEY" , "zip": 6530},
  { "name": "Carigara", "province": "LEY", "zip": 6529 },
  { "name": "Dagami", "province": "LEY" , "zip": 6515},
  { "name": "Dulag", "province": "LEY", "zip": 6505 },
  { "name": "Hilongos", "province": "LEY" , "zip": 6524},
  { "name": "Hindang", "province": "LEY", "zip": 6523 },
  { "name": "Inopacan", "province": "LEY" , "zip": 6522},
  { "name": "Isabel", "province": "LEY" , "zip": 6539},
  { "name": "Jaro", "province": "LEY" , "zip": 6527},
  { "name": "Javier", "province": "LEY", "zip": 6511 },
  { "name": "Julita", "province": "LEY" , "zip": 6506},
  { "name": "Kananga", "province": "LEY" , "zip": 6531},
  { "name": "La Paz", "province": "LEY" , "zip": 6508},
  { "name": "Leyte", "province": "LEY" , "zip": 6533},
  { "name": "MacArthur", "province": "LEY", "zip": 6509 },
  { "name": "Mahaplag", "province": "LEY", "zip": 6512 },
  { "name": "Matag-ob", "province": "LEY" , "zip": 6532},
  { "name": "Matalom", "province": "LEY" , "zip": 6526},
  { "name": "Mayorga", "province": "LEY", "zip": 6507 },
  { "name": "Merida", "province": "LEY", "zip": 6540 },
  { "name": "Ormoc", "province": "LEY", "city": true , "zip": 6541},
  { "name": "Palo", "province": "LEY" , "zip": 6501},
  { "name": "Palompon", "province": "LEY" , "zip": 6538},
  { "name": "Pastrana", "province": "LEY" , "zip": 6514},
  { "name": "San Isidro", "province": "LEY" , "zip": 6535},
  { "name": "San Miguel", "province": "LEY" , "zip": 6518},
  { "name": "Santa Fe", "province": "LEY" , "zip": 6513},
  { "name": "Tabango", "province": "LEY" , "zip": 6536},
  { "name": "Tabontabon", "province": "LEY" , "zip": 6504},
  { "name": "Tacloban", "province": "LEY", "city": true, "zip": 6500 },
  { "name": "Tanauan", "province": "LEY" , "zip": 6502},
  { "name": "Tolosa", "province": "LEY", "zip": 6503 },
  { "name": "Tunga", "province": "LEY" , "zip": 6528},
  { "name": "Villaba", "province": "LEY", "zip": 6537 }]},
{"Northern Samar":
  [{ "name": "Allen", "province": "NSA", "zip": 6405 },
  { "name": "Biri", "province": "NSA", "zip": 6410 },
  { "name": "Bobon", "province": "NSA", "zip": 6401 },
  { "name": "Capul", "province": "NSA", "zip": 6408 },
  { "name": "Catarman", "province": "NSA", "zip": 6400 },
  { "name": "Catubig", "province": "NSA" , "zip": 6418},
  { "name": "Gamay", "province": "NSA" , "zip": 6422},
  { "name": "Laoang", "province": "NSA" , "zip": 6411},
  { "name": "Lapinig", "province": "NSA" , "zip": 6423},
  { "name": "Las Navas", "province": "NSA" , "zip": 6420},
  { "name": "Lavezares", "province": "NSA" , "zip": 6404},
  { "name": "Lope de Vega", "province": "NSA" , "zip": 6403},
  { "name": "Mapanas", "province": "NSA" , "zip": 6412},
  { "name": "Mondragon", "province": "NSA" , "zip": 6417},
  { "name": "Palapag", "province": "NSA", "zip": 6421 },
  { "name": "Pambujan", "province": "NSA" , "zip": 6413},
  { "name": "Rosario", "province": "NSA" , "zip": 6416},
  { "name": "San Antonio", "province": "NSA", "zip": 6407 },
  { "name": "San Isidro", "province": "NSA" , "zip": 6409},
  { "name": "San Jose", "province": "NSA", "zip": 6402 },
  { "name": "San Roque", "province": "NSA", "zip": 6415 },
  { "name": "San Vicente", "province": "NSA", "zip": 6419 },
  { "name": "Silvino Lobos", "province": "NSA", "zip": 6414 },
  { "name": "Victoria", "province": "NSA", "zip": 6406 }]},
{"Samar":
  [{ "name": "Almagro", "province": "WSA", "zip": 6724 },
  { "name": "Basey", "province": "WSA", "zip": 6720 },
  { "name": "Calbayog", "province": "WSA", "city": true, "zip": 6710 },
  { "name": "Calbiga", "province": "WSA", "zip": 6715 },
  { "name": "Catbalogan", "province": "WSA", "city": true, "zip": 6700 },
  { "name": "Daram", "province": "WSA", "zip": 6722 },
  { "name": "Gandara", "province": "WSA" , "zip": 6706},
  { "name": "Hinabangan", "province": "WSA", "zip": 6713 },
  { "name": "Jiabong", "province": "WSA", "zip": 6701 },
  { "name": "Marabut", "province": "WSA", "zip": 6721 },
  { "name": "Matuguinao", "province": "WSA", "zip": 6708 },
  { "name": "Motiong", "province": "WSA", "zip": 6702 },
  { "name": "Pagsanghan", "province": "WSA", "zip": 6705 },
  { "name": "Paranas", "province": "WSA" , "zip": 6703},
  { "name": "Pinabacdao", "province": "WSA" , "zip": 6716},
  { "name": "San Jorge", "province": "WSA", "zip": 6707 },
  { "name": "San Jose de Buan", "province": "WSA" , "zip": 6723},
  { "name": "San Sebastian", "province": "WSA" , "zip": 6714},
  { "name": "Santa Margarita", "province": "WSA" , "zip": 6709},
  { "name": "Santa Rita", "province": "WSA" , "zip": 6718},
  { "name": "Santo Niño", "province": "WSA", "zip": 6711 },
  { "name": "Tagapul-an", "province": "WSA" , "zip": 6712},
  { "name": "Talalora", "province": "WSA" , "zip": 6719},
  { "name": "Tarangnan", "province": "WSA", "zip": 6704 },
  { "name": "Villareal", "province": "WSA" , "zip": 6717},
  { "name": "Zumarraga", "province": "WSA" , "zip": 6725}]},
{"Southern Leyte":
  [{ "name": "Anahawan", "province": "SLE", "zip": 6610 },
  { "name": "Bontoc", "province": "SLE", "zip": 6604 },
  { "name": "Hinunangan", "province": "SLE" , "zip": 6608},
  { "name": "Hinundayan", "province": "SLE" , "zip": 6609},
  { "name": "Libagon", "province": "SLE" , "zip": 6615},
  { "name": "Liloan", "province": "SLE" , "zip": 6612},
  { "name": "Limasawa", "province": "SLE" , "zip": 6618},
  { "name": "Maasin", "province": "SLE", "city": true, "zip": 6600 },
  { "name": "Macrohon", "province": "SLE" , "zip": 6601},
  { "name": "Malitbog", "province": "SLE" , "zip": 6603},
  { "name": "Padre Burgos", "province": "SLE" , "zip": 6602},
  { "name": "Pintuyan", "province": "SLE" , "zip": 6614},
  { "name": "Saint Bernard", "province": "SLE" , "zip": 6616},
  { "name": "San Francisco", "province": "SLE" , "zip": 6613},
  { "name": "San Juan", "province": "SLE", "zip": 6611 },
  { "name": "San Ricardo", "province": "SLE" , "zip": 6617},
  { "name": "Silago", "province": "SLE", "zip": 6607 },
  { "name": "Sogod", "province": "SLE", "zip": 6606 },
  { "name": "Tomas Oppus", "province": "SLE" , "zip": 6605}]},
{"Zamboanga del Norte":
  [{ "name": "Baliguian", "province": "ZAN", "zip": 7123 },
  { "name": "Dapitan", "province": "ZAN", "city": true, "zip": 7101 },
  { "name": "Dipolog", "province": "ZAN", "city": true, "zip": 7100 },
  { "name": "Gutalac", "province": "ZAN", "zip": 7118 },
  { "name": "Jose Dalman", "province": "ZAN" , "zip": 7111},
  { "name": "Kalawit", "province": "ZAN" , "zip": 7124},
  { "name": "Katipunan", "province": "ZAN", "zip": 7109 },
  { "name": "La Libertad", "province": "ZAN", "zip": 7119 },
  { "name": "Labason", "province": "ZAN", "zip": 7117 },
  { "name": "Liloy", "province": "ZAN" , "zip": 7115},
  { "name": "Manukan", "province": "ZAN" , "zip": 7110},
  { "name": "Mutia", "province": "ZAN", "zip": 7107},
  { "name": "Piñan", "province": "ZAN" , "zip": 7105},
  { "name": "Polanco", "province": "ZAN" , "zip": 7106},
  { "name": "President Manuel A. Roxas", "province": "ZAN", "zip": 7102 },
  { "name": "Rizal", "province": "ZAN", "zip": 7104 },
  { "name": "Salug", "province": "ZAN" , "zip": 7114},
  { "name": "Sergio Osmeña Sr.", "province": "ZAN" , "zip": 7108},
  { "name": "Siayan", "province": "ZAN", "zip": 7113 },
  { "name": "Sibuco", "province": "ZAN" , "zip": 7122},
  { "name": "Sibutad", "province": "ZAN" , "zip": 7103},
  { "name": "Sindangan", "province": "ZAN" , "zip": 7112},
  { "name": "Siocon", "province": "ZAN" , "zip": 7120},
  { "name": "Sirawai", "province": "ZAN" , "zip": 7121},
  { "name": "Tampilisan", "province": "ZAN" , "zip": 7116}]},
{"Zamboanga del Sur":
  [{ "name": "Aurora", "province": "ZAS", "zip": 7020 },
  { "name": "Bayog", "province": "ZAS", "zip": 7011 },
  { "name": "Dimataling", "province": "ZAS", "zip": 7032 },
  { "name": "Dinas", "province": "ZAS", "zip": 7030 },
  { "name": "Dumalinao", "province": "ZAS" , "zip": 7015},
  { "name": "Dumingag", "province": "ZAS" , "zip": 7028},
  { "name": "Guipos", "province": "ZAS", "zip": 7042 },
  { "name": "Josefina", "province": "ZAS" , "zip": 7027},
  { "name": "Kumalarang", "province": "ZAS" , "zip": 7013},
  { "name": "Labangan", "province": "ZAS" , "zip": 7017},
  { "name": "Lakewood", "province": "ZAS" , "zip": 7014},
  { "name": "Lapuyan", "province": "ZAS", "zip": 7037 },
  { "name": "Mahayag", "province": "ZAS", "zip": 7026 },
  { "name": "Margosatubig", "province": "ZAS" , "zip": 7035},
  { "name": "Midsalip", "province": "ZAS", "zip": 7021 },
  { "name": "Molave", "province": "ZAS", "zip": 7023 },
  { "name": "Pagadian", "province": "ZAS", "city": true, "zip": 7016 },
  { "name": "Pitogo", "province": "ZAS", "zip": 7033 },
  { "name": "Ramon Magsaysay", "province": "ZAS" , "zip": 7024},
  { "name": "San Miguel", "province": "ZAS", "zip": 7029 },
  { "name": "San Pablo", "province": "ZAS" , "zip": 7031},
  { "name": "Sominot", "province": "ZAS" , "zip": 7022},
  { "name": "Tabina", "province": "ZAS", "zip": 7034 },
  { "name": "Tambulig", "province": "ZAS", "zip": 7025 },
  { "name": "Tigbao", "province": "ZAS", "zip": 7043 },
  { "name": "Tukuran", "province": "ZAS" , "zip": 7019},
  { "name": "Vincenzo A. Sagun", "province": "ZAS", "zip": 7036 },
  { "name": "Zamboanga", "province": "ZAS", "city": true, "zip": 7000 }]},
{"Zamboanga Sibugay":
  [{ "name": "Alicia", "province": "ZSI", "zip": 7040},
  { "name": "Buug", "province": "ZSI", "zip": 7009 },
  { "name": "Diplahan", "province": "ZSI", "zip": 7039 },
  { "name": "Imelda", "province": "ZSI", "zip": 7007 },
  { "name": "Ipil", "province": "ZSI" , "zip": 7001},
  { "name": "Kabasalan", "province": "ZSI" , "zip": 7005},
  { "name": "Mabuhay", "province": "ZSI", "zip": 7010 },
  { "name": "Malangas", "province": "ZSI" , "zip": 7038},
  { "name": "Naga", "province": "ZSI", "zip": 7004 },
  { "name": "Olutanga", "province": "ZSI", "zip": 7041 },
  { "name": "Payao", "province": "ZSI", "zip": 7008 },
  { "name": "Roseller Lim", "province": "ZSI", "zip": 7002 },
  { "name": "Siay", "province": "ZSI", "zip": 7006 },
  { "name": "Talusan", "province": "ZSI" , "zip": 7012},
  { "name": "Titay", "province": "ZSI" , "zip": 7003},
  { "name": "Tungawan", "province": "ZSI", "zip": 7018 }]},
{"Bukidnon":
  [{ "name": "Baungon", "province": "BUK", "zip": 8707 },
  { "name": "Cabanglasan", "province": "BUK", "zip": 8723 },
  { "name": "Damulog", "province": "BUK" , "zip": 8721},
  { "name": "Dangcagan", "province": "BUK", "zip": 8719 },
  { "name": "Don Carlos", "province": "BUK", "zip": 8712 }, 
  { "name": "Impasugong", "province": "BUK" , "zip": 8702},
  { "name": "Kadingilan", "province": "BUK" , "zip": 8713},
  { "name": "Kalilangan", "province": "BUK" , "zip": 8718},
  { "name": "Kibawe", "province": "BUK", "zip": 8720 },
  { "name": "Kitaotao", "province": "BUK" , "zip": 8716},
  { "name": "Lantapan", "province": "BUK" , "zip": 8722},
  { "name": "Libona", "province": "BUK", "zip": 8706 },
  { "name": "Malaybalay", "province": "BUK", "city": true , "zip": 8700},
  { "name": "Malitbog", "province": "BUK" , "zip": 8704},
  { "name": "Manolo Fortich", "province": "BUK" , "zip": 8703},
  { "name": "Maramag", "province": "BUK", "zip": 8714 },
  { "name": "Pangantucan", "province": "BUK" , "zip": 8717},
  { "name": "Quezon", "province": "BUK", "zip": 8715 },
  { "name": "San Fernando", "province": "BUK" , "zip": 8701},
  { "name": "Sumilao", "province": "BUK" , "zip": 8701},
  { "name": "Talakag", "province": "BUK", "zip": 8708 },
  { "name": "Valencia", "province": "BUK", "city": true , "zip": 8709}]},
{"Camiguin":
  [{ "name": "Catarman", "province": "CAM" , "zip": 9104},
  { "name": "Guinsiliban", "province": "CAM", "zip": 9102 },
  { "name": "Mahinog", "province": "CAM", "zip": 9101 },
  { "name": "Mambajao", "province": "CAM", "zip": 9100 },
  { "name": "Sagay", "province": "CAM" , "zip": 9103}]},
{"Lanao del Norte":
  [{ "name": "Bacolod", "province": "LAN", "zip": 9205 },
  { "name": "Baloi", "province": "LAN", "zip": 9217 },
  { "name": "Baroy", "province": "LAN" , "zip": 9210},
  { "name": "Iligan", "province": "LAN", "city": true, "zip": 9200 },
  { "name": "Kapatagan", "province": "LAN", "zip": 9214 },
  { "name": "Kauswagan", "province": "LAN" , "zip": 9202},
  { "name": "Kolambugan", "province": "LAN" , "zip": 9207},
  { "name": "Lala", "province": "LAN", "zip": 9211 },
  { "name": "Linamon", "province": "LAN" , "zip": 9201},
  { "name": "Magsaysay", "province": "LAN" , "zip": 9221},
  { "name": "Maigo", "province": "LAN", "zip": 9206 },
  { "name": "Matungao", "province": "LAN" , "zip": 9203},
  { "name": "Munai", "province": "LAN" , "zip": 9219},
  { "name": "Nunungan", "province": "LAN" , "zip": 9216},
  { "name": "Pantao Ragat", "province": "LAN", "zip": 9208 },
  { "name": "Pantar", "province": "LAN", "zip": 9218 },
  { "name": "Poona Piagapo", "province": "LAN" , "zip": 9204},
  { "name": "Salvador", "province": "LAN" , "zip": 9212},
  { "name": "Sapad", "province": "LAN" , "zip": 9213},
  { "name": "Sultan Naga Dimaporo", "province": "LAN", "zip": 9215 },
  { "name": "Tagoloan", "province": "LAN", "zip": 9222 },
  { "name": "Tangcal", "province": "LAN" , "zip": 9220},
  { "name": "Tubod", "province": "LAN", "zip": 9209 }]},
{"Misamis Occidental":
  [{ "name": "Aloran", "province": "MSC", "zip": 7206 },
  { "name": "Baliangao", "province": "MSC", "zip": 7211  },
  { "name": "Bonifacio", "province": "MSC", "zip": 7215  },
  { "name": "Calamba", "province": "MSC", "zip": 7210  },
  { "name": "Clarin", "province": "MSC", "zip": 7201  },
  { "name": "Concepcion", "province": "MSC", "zip": 7213  },
  { "name": "Jimenez", "province": "MSC", "zip": 7204  },
  { "name": "Lopez Jaena", "province": "MSC", "zip": 7208  },
  { "name": "Oroquieta", "province": "MSC", "city": true, "zip": 7207  },
  { "name": "Ozamiz", "province": "MSC", "city": true, "zip": 7200  },
  { "name": "Panaon", "province": "MSC", "zip": 7205  },
  { "name": "Plaridel", "province": "MSC", "zip": 7209  },
  { "name": "Sapang Dalaga", "province": "MSC", "zip": 7212  },
  { "name": "Sinacaban", "province": "MSC", "zip": 7203  },
  { "name": "Tangub", "province": "MSC", "city": true, "zip": 7214  },
  { "name": "Tudela", "province": "MSC", "zip": 7202  }]},
{"Misamis Oriental":
  [{ "name": "Alubijid", "province": "MSR", "zip": 9018 },
  { "name": "Balingasag", "province": "MSR", "zip": 9005 },
  { "name": "Balingoan", "province": "MSR", "zip": 9011 },
  { "name": "Binuangan", "province": "MSR", "zip": 9008 },
  { "name": "Cagayan de Oro", "province": "MSR", "city": true, "zip": 9000 },
  { "name": "Claveria", "province": "MSR" , "zip": 9004},
  { "name": "El Salvador", "province": "MSR", "city": true , "zip": 9017},
  { "name": "Gingoog", "province": "MSR", "city": true, "zip": 9014 },
  { "name": "Gitagum", "province": "MSR" , "zip": 9020},
  { "name": "Initao", "province": "MSR" , "zip": 9022},
  { "name": "Jasaan", "province": "MSR" , "zip": 9003},
  { "name": "Kinoguitan", "province": "MSR", "zip": 9010 },
  { "name": "Lagonglong", "province": "MSR", "zip": 9006 },
  { "name": "Laguindingan", "province": "MSR", "zip": 9019 },
  { "name": "Libertad", "province": "MSR" , "zip": 9021},
  { "name": "Lugait", "province": "MSR" , "zip": 9025},
  { "name": "Magsaysay", "province": "MSR" , "zip": 9015},
  { "name": "Manticao", "province": "MSR", "zip": 9024 },
  { "name": "Medina", "province": "MSR", "zip": 9013 },
  { "name": "Naawan", "province": "MSR", "zip": 9023 },
  { "name": "Opol", "province": "MSR" , "zip": 9016},
  { "name": "Salay", "province": "MSR", "zip": 9007 },
  { "name": "Sugbongcogon", "province": "MSR", "zip": 9009 },
  { "name": "Tagoloan", "province": "MSR" , "zip": 9001},
  { "name": "Talisayan", "province": "MSR", "zip": 9012 },
  { "name": "Villanueva", "province": "MSR", "zip": 9002 }]},
{"Compostela Valley":
  [{ "name": "Compostela", "province": "COM", "zip": 8803 },
  { "name": "Laak", "province": "COM", "zip": 8810 },
  { "name": "Mabini", "province": "COM", "zip": 8807 },
  { "name": "Maco", "province": "COM", "zip": 8806 },
  { "name": "Maragusan", "province": "COM" , "zip": 8808},
  { "name": "Mawab", "province": "COM" , "zip": 8802},
  { "name": "Monkayo", "province": "COM", "zip": 8805 },
  { "name": "Montevista", "province": "COM" , "zip": 8801},
  { "name": "Nabunturan", "province": "COM" , "zip": 8800},
  { "name": "New Bataan", "province": "COM" , "zip": 8804},
  { "name": "Pantukan", "province": "COM", "zip": 8809 }]},
{"Davao del Norte":
  [{ "name": "Asuncion", "province": "DAV", "zip": 8102 },
  { "name": "Carmen", "province": "DAV", "zip": 8101 },
  { "name": "Kapalong", "province": "DAV", "zip": 8113 },
  { "name": "New Corella", "province": "DAV" , "zip": 8104},
  { "name": "Panabo", "province": "DAV", "city": true, "zip": 8105 },
  { "name": "Samal", "province": "DAV", "city": true, "zip": 8119 },
  { "name": "Santo Tomas", "province": "DAV", "zip": 8112 },
  { "name": "Tagum", "province": "DAV", "city": true , "zip": 8100}]},
{"Davao del Sur":
  [{ "name": "Bansalan", "province": "DAS", "zip": 8005 },
  { "name": "Davao", "province": "DAS", "city": true, "zip": 8000 },
  { "name": "Digos", "province": "DAS", "city": true, "zip": 8002 },
  { "name": "Hagonoy", "province": "DAS", "zip": 8006 },
  { "name": "Kiblawan", "province": "DAS", "zip": 8008 },
  { "name": "Magsaysay", "province": "DAS" , "zip": 8004},
  { "name": "Malalag", "province": "DAS", "zip": 8010 },
  { "name": "Matanao", "province": "DAS" , "zip": 8003},
  { "name": "Padada", "province": "DAS", "zip": 8007 },
  { "name": "Santa Cruz", "province": "DAS", "zip": 8001 },
  { "name": "Sulop", "province": "DAS", "zip": 8009 }]},
{"Davao Occidental":
  [{ "name": "Don Marcelino", "province": "DAC", "zip": 8013 },
  { "name": "Jose Abad Santos", "province": "DAC", "zip": 8014 },
  { "name": "Malita", "province": "DAC", "zip": 8012 },
  { "name": "Santa Maria", "province": "DAC", "zip": 8011 },
  { "name": "Sarangani", "province": "DAC", "zip": 8015 }]},
{"Davao Oriental":
  [{ "name": "Baganga", "province": "DAO" , "zip": 8204},
  { "name": "Banaybanay", "province": "DAO" , "zip": 8208},
  { "name": "Boston", "province": "DAO", "zip": 8206 },
  { "name": "Caraga", "province": "DAO" , "zip": 8203},
  { "name": "Cateel", "province": "DAO" , "zip": 8205},
  { "name": "Governor Generoso", "province": "DAO", "zip": 8210 },
  { "name": "Lupon", "province": "DAO", "zip": 8207 },
  { "name": "Manay", "province": "DAO" , "zip": 8202},
  { "name": "Mati", "province": "DAO", "city": true , "zip": 8200},
  { "name": "San Isidro", "province": "DAO" , "zip": 8209},
  { "name": "Tarragona", "province": "DAO", "zip": 8201 }]},
{"Cotabato":
  [{ "name": "Alamada", "province": "NCO", "zip": 9413 },
  { "name": "Aleosan", "province": "NCO" , "zip": 9415},
  { "name": "Antipas", "province": "NCO" , "zip": 9414},
  { "name": "Arakan", "province": "NCO", "zip": 9417 },
  { "name": "Banisilan", "province": "NCO" , "zip": 9416},
  { "name": "Carmen", "province": "NCO" , "zip": 9408},
  { "name": "Kabacan", "province": "NCO", "zip": 9407 },
  { "name": "Kidapawan", "province": "NCO", "city": true, "zip": 9400 },
  { "name": "Libungan", "province": "NCO" , "zip": 9411},
  { "name": "M'lang", "province": "NCO" , "zip": 9402},
  { "name": "Magpet", "province": "NCO" , "zip": 9404},
  { "name": "Makilala", "province": "NCO" , "zip": 9401},
  { "name": "Matalam", "province": "NCO" , "zip": 9406},
  { "name": "Midsayap", "province": "NCO" , "zip": 9410},
  { "name": "Pigcawayan", "province": "NCO" , "zip": 9412},
  { "name": "Pikit", "province": "NCO" , "zip": 9409},
  { "name": "President Roxas", "province": "NCO" , "zip": 9405},
  { "name": "Tulunan", "province": "NCO" , "zip": 9403}]},
{"Sarangani":
  [{ "name": "Alabel", "province": "SAR", "zip": 9501 },
  { "name": "Glan", "province": "SAR", "zip": 9517 },
  { "name": "Kiamba", "province": "SAR", "zip": 9514 },
  { "name": "Maasim", "province": "SAR", "zip": 9502 },
  { "name": "Maitum", "province": "SAR", "zip": 9515 },
  { "name": "Malapatan", "province": "SAR" , "zip": 9516},
  { "name": "Malungon", "province": "SAR", "zip": 9503 }]},
{"South Cotabato":
  [{ "name": "Banga", "province": "SCO", "zip": 9511 },
  { "name": "General Santos", "province": "SCO", "city": true, "zip": 9500 },
  { "name": "Koronadal", "province": "SCO", "city": true, "zip": 9506 },
  { "name": "Lake Sebu", "province": "SCO", "zip": 9512 },
  { "name": "Norala", "province": "SCO", "zip": 9508 },
  { "name": "Polomolok", "province": "SCO", "zip": 9504 },
  { "name": "Santo Niño", "province": "SCO", "zip": 9509 },
  { "name": "Surallah", "province": "SCO", "zip": 9512 },
  { "name": "T'boli", "province": "SCO", "zip": 9513 },
  { "name": "Tampakan", "province": "SCO", "zip": 9507 },
  { "name": "Tantangan", "province": "SCO", "zip": 9510 },
  { "name": "Tupi", "province": "SCO", "zip": 9505 }]},
{"Sultan Kudarat":
  [{ "name": "Bagumbayan", "province": "SUK" , "zip": 9810},
  { "name": "Columbio", "province": "SUK", "zip": 9801 },
  { "name": "Esperanza", "province": "SUK", "zip": 9806 },
  { "name": "Isulan", "province": "SUK" , "zip": 9805},
  { "name": "Kalamansig", "province": "SUK", "zip": 9808 },
  { "name": "Lambayong", "province": "SUK" , "zip": 9802},
  { "name": "Lebak", "province": "SUK" , "zip": 9807},
  { "name": "Lutayan", "province": "SUK", "zip": 9803 },
  { "name": "Palimbang", "province": "SUK", "zip": 9809 },
  { "name": "President Quirino", "province": "SUK" , "zip": 9804},
  { "name": "Senator Ninoy Aquino", "province": "SUK", "zip": 9811 },
  { "name": "Tacurong", "province": "SUK", "city": true , "zip": 9800}]},
{"Agusan del Norte":
  [{ "name": "Buenavista", "province": "AGN", "zip": 8601 },
  { "name": "Butuan", "province": "AGN", "city": true, "zip": 8600 },
  { "name": "Cabadbaran", "province": "AGN", "city": true , "zip": 8605},
  { "name": "Carmen", "province": "AGN" , "zip": 8603},
  { "name": "Jabonga", "province": "AGN", "zip": 8607 },
  { "name": "Kitcharao", "province": "AGN" , "zip": 8609},
  { "name": "Las Nieves", "province": "AGN" , "zip": 8610},
  { "name": "Magallanes", "province": "AGN" , "zip": 8604},
  { "name": "Nasipit", "province": "AGN", "zip": 8602 },
  { "name": "Remedios T. Romualdez", "province": "AGN" , "zip": 8611},
  { "name": "Santiago", "province": "AGN", "zip": 8608 },
  { "name": "Tubay", "province": "AGN", "zip": 8606 }]},
{"Agusan del Sur":
  [{ "name": "Bayugan", "province": "AGS", "city": true , "zip": 8502},
  { "name": "Bunawan", "province": "AGS", "zip": 8506 },
  { "name": "Esperanza", "province": "AGS", "zip": 8513 },
  { "name": "La Paz", "province": "AGS", "zip": 8508 },
  { "name": "Loreto", "province": "AGS" , "zip": 8507},
  { "name": "Prosperidad", "province": "AGS" , "zip": 8500},
  { "name": "Rosario", "province": "AGS", "zip": 8504 },
  { "name": "San Francisco", "province": "AGS" , "zip": 8501},
  { "name": "San Luis", "province": "AGS", "zip": 8511 },
  { "name": "Santa Josefa", "province": "AGS" , "zip": 8512},
  { "name": "Sibagat", "province": "AGS", "zip": 8503 },
  { "name": "Talacogon", "province": "AGS", "zip": 8510 },
  { "name": "Trento", "province": "AGS", "zip": 8505 },
  { "name": "Veruela", "province": "AGS", "zip": 8509 }]},
{"Dinagat Islands":
  [{ "name": "Basilisa", "province": "DIN", "zip": 8413 },
  { "name": "Cagdianao", "province": "DIN", "zip": 8411 },
  { "name": "Dinagat", "province": "DIN", "zip": 8412 },
  { "name": "Libjo", "province": "DIN" , "zip": 8414},
  { "name": "Loreto", "province": "DIN", "zip": 8415 },
  { "name": "San Jose", "province": "DIN", "zip": 8427 },
  { "name": "Tubajon", "province": "DIN", "zip": 8426 }]},
{"Surigao del Norte":
  [{ "name": "Alegria", "province": "SUN", "zip": 8425 },
  { "name": "Bacuag", "province": "SUN", "zip": 8408 },
  { "name": "Burgos", "province": "SUN", "zip": 8424 },
  { "name": "Claver", "province": "SUN", "zip": 8410 },
  { "name": "Dapa", "province": "SUN", "zip": 8417 },
  { "name": "Del Carmen", "province": "SUN", "zip": 8418 },
  { "name": "General Luna", "province": "SUN", "zip": 8419 },
  { "name": "Gigaquit", "province": "SUN", "zip": 8409 },
  { "name": "Mainit", "province": "SUN", "zip": 8407 },
  { "name": "Malimono", "province": "SUN" , "zip": 8402},
  { "name": "Pilar", "province": "SUN" , "zip": 8420},
  { "name": "Placer", "province": "SUN", "zip": 8405 },
  { "name": "San Benito", "province": "SUN", "zip": 8423 },
  { "name": "San Francisco", "province": "SUN", "zip": 8401 },
  { "name": "San Isidro", "province": "SUN" , "zip": 8421},
  { "name": "Santa Monica", "province": "SUN" , "zip": 8422},
  { "name": "Sison", "province": "SUN", "zip": 8404 },
  { "name": "Socorro", "province": "SUN", "zip": 8416 },
  { "name": "Surigao", "province": "SUN", "city": true, "zip": 8400 },
  { "name": "Tagana-an", "province": "SUN", "zip": 8403 },
  { "name": "Tubod", "province": "SUN", "zip": 8406 }]},
{"Surigao del Sur":
  [{ "name": "Barobo", "province": "SUR", "zip": 8309 },
  { "name": "Bayabas", "province": "SUR", "zip": 8303 },
  { "name": "Bislig", "province": "SUR", "city": true, "zip": 8311 },
  { "name": "Cagwait", "province": "SUR", "zip": 8304 },
  { "name": "Cantilan", "province": "SUR" , "zip": 8317},
  { "name": "Carmen", "province": "SUR", "zip": 8315 },
  { "name": "Carrascal", "province": "SUR", "zip": 8318 },
  { "name": "Cortes", "province": "SUR", "zip": 8313 },
  { "name": "Hinatuan", "province": "SUR", "zip": 8310 },
  { "name": "Lanuza", "province": "SUR", "zip": 8314 },
  { "name": "Lianga", "province": "SUR", "zip": 8307 },
  { "name": "Lingig", "province": "SUR", "zip": 8312 },
  { "name": "Madrid", "province": "SUR", "zip": 8316 },
  { "name": "Marihatag", "province": "SUR", "zip": 8306 },
  { "name": "San Agustin", "province": "SUR" , "zip": 8305},
  { "name": "San Miguel", "province": "SUR", "zip": 8301 },
  { "name": "Tagbina", "province": "SUR", "zip": 8308 },
  { "name": "Tago", "province": "SUR", "zip": 8302 },
  { "name": "Tandag", "province": "SUR", "city": true, "zip": 8300 }]},
{"Basilan":
  [{ "name": "Isabela", "province": "BAS", "city": true, "zip": 7300  },
  { "name": "Lamitan", "province": "BAS", "city": true , "zip": 7302 },
  { "name": "Lantawan", "province": "BAS" , "zip": 7301 },
  { "name": "Maluso", "province": "BAS", "zip": 7303  },
  { "name": "Sumisip", "province": "BAS" , "zip": 7305 },
  { "name": "Tipo-Tipo", "province": "BAS", "zip": 7304  },
  { "name": "Tuburan", "province": "BAS", "zip": 7306  }]},
{"Lanao del Sur":
  [{ "name": "Bacolod-Kalawi", "province": "LAS", "zip": 9316 },
  { "name": "Balabagan", "province": "LAS", "zip": 9302 },
  { "name": "Balindong", "province": "LAS", "zip": 9318 },
  { "name": "Bayang", "province": "LAS", "zip": 9309 },
  { "name": "Binidayan", "province": "LAS", "zip": 9310 },
  { "name": "Buadiposo-Buntong", "province": "LAS", "zip": 9714 },
  { "name": "Bubong", "province": "LAS", "zip": 9708 },
  { "name": "Bumbaran", "province": "LAS", "zip": 9320 },
  { "name": "Butig", "province": "LAS", "zip": 9305 },
  { "name": "Calanogas", "province": "LAS", "zip": 9319 },
  { "name": "Ditsaan-Ramain", "province": "LAS", "zip": 9713 },
  { "name": "Ganassi", "province": "LAS" , "zip": 9311},
  { "name": "Kapai", "province": "LAS" , "zip": 9709},
  { "name": "Lumba-Bayabao", "province": "LAS" , "zip": 9703},
  { "name": "Lumbaca-Unayan", "province": "LAS", "zip": 9308 },
  { "name": "Lumbatan", "province": "LAS" , "zip": 9307},
  { "name": "Lumbayanague", "province": "LAS" , "zip": 9306},
  { "name": "Madalum", "province": "LAS" , "zip": 9315},
  { "name": "Madamba", "province": "LAS" , "zip": 9314},
  { "name": "Maguing", "province": "LAS" , "zip": 9715},
  { "name": "Malabang", "province": "LAS", "zip": 9300 },
  { "name": "Marantao", "province": "LAS" , "zip": 9711},
  { "name": "Marawi", "province": "LAS", "city": true , "zip": 9700},
  { "name": "Marogong", "province": "LAS", "zip": 9303 },
  { "name": "Masiu", "province": "LAS" , "zip": 9706},
  { "name": "Mulondo", "province": "LAS", "zip": 9702 },
  { "name": "Pagayawan", "province": "LAS" , "zip": 9312},
  { "name": "Piagapo", "province": "LAS", "zip": 9710 },
  { "name": "Poona Bayabao", "province": "LAS", "zip": 9705 },
  { "name": "Pualas", "province": "LAS" , "zip": 9313},
  { "name": "Saguiaran", "province": "LAS", "zip": 9701 },
  { "name": "Picong", "province": "LAS" , "zip": 9301},
  { "name": "Tagoloan II", "province": "LAS" , "zip": 9321},
  { "name": "Tamparan", "province": "LAS", "zip": 9704 },
  { "name": "Taraka", "province": "LAS", "zip": 9712 },
  { "name": "Tubaran", "province": "LAS", "zip": 9304 },
  { "name": "Tugaya", "province": "LAS" , "zip": 9317},
  { "name": "Wao", "province": "LAS" , "zip": 9716}]},
{"Maguindanao":
  [{ "name": "Ampatuan", "province": "MAG" , "zip": 9609},
  { "name": "Barira", "province": "MAG" , "zip": 9614},
  { "name": "Buldon", "province": "MAG" , "zip": 9615},
  { "name": "Buluan", "province": "MAG" , "zip": 9616},
  { "name": "Cotabato", "province": "MAG", "city": true, "zip": 9600 },
  { "name": "Datu Blah T. Sinsuat", "province": "MAG", "zip": 9602 },
  { "name": "Datu Odin Sinsuat", "province": "MAG" , "zip": 9601},
  { "name": "Datu Paglas", "province": "MAG" , "zip": 9617},
  { "name": "Datu Piang", "province": "MAG", "zip": 9607 },
  { "name": "General Salipada K. Pendatun", "province": "MAG" , "zip": 9618},
  { "name": "Kabuntalan", "province": "MAG" , "zip": 9606},
  { "name": "Matanog", "province": "MAG" , "zip": 9613},
  { "name": "Northern Kabuntalan", "province": "MAG", "zip": 9606 },
  { "name": "Pagalungan", "province": "MAG", "zip": 9610 },
  { "name": "Parang", "province": "MAG" , "zip": 9604},
  { "name": "South Upi", "province": "MAG", "zip": 9603},
  { "name": "Sultan Kudarat", "province": "MAG" , "zip": 9605},
  { "name": "Sultan sa Barongis", "province": "MAG", "zip": 9611 },
  { "name": "Sultan Sumagka", "province": "MAG" , "zip": 96},
  { "name": "Talayan", "province": "MAG", "zip": 9612 },
  { "name": "Upi", "province": "MAG" , "zip": 9602}]},
{"Sulu":
  [{ "name": "Banguingui", "province": "SLU", "zip": 7406 },
  { "name": "Hadji Panglima Tahil", "province": "SLU", "zip": 7413 },
  { "name": "Indanan", "province": "SLU", "zip": 7407 },
  { "name": "Jolo", "province": "SLU", "zip": 7400 },
  { "name": "Kalingalan Caluang", "province": "SLU" , "zip": 7416},
  { "name": "Lugus", "province": "SLU", "zip": 7411 },
  { "name": "Luuk", "province": "SLU" , "zip": 7404},
  { "name": "Maimbung", "province": "SLU", "zip": 7409 },
  { "name": "Old Panamao", "province": "SLU", "zip": 7402 },
  { "name": "Panglima Estino", "province": "SLU" , "zip": 7415},
  { "name": "Pangutaran", "province": "SLU" , "zip": 7414},
  { "name": "Parang", "province": "SLU" , "zip": 7408},
  { "name": "Pata", "province": "SLU", "zip": 7405 },
  { "name": "Patikul", "province": "SLU", "zip": 7401 },
  { "name": "Siasi", "province": "SLU" , "zip": 7412},
  { "name": "Talipao", "province": "SLU" , "zip": 7403},
  { "name": "Tapul", "province": "SLU" , "zip": 7410}]},
{"Tawi-tawi":
  [{ "name": "Bongao", "province": "TAW", "zip": 7500 },
  { "name": "Languyan", "province": "TAW", "zip": 7509 },
  { "name": "Mapun", "province": "TAW", "zip": 7508 },
  { "name": "Panglima Sugala", "province": "TAW", "zip": 7501 },
  { "name": "Sapa-Sapa", "province": "TAW" , "zip": 7503},
  { "name": "Simunul", "province": "TAW", "zip": 7505 },
  { "name": "Sitangkai", "province": "TAW", "zip": 7506 },
  { "name": "South Ubian", "province": "TAW" , "zip": 7504},
  { "name": "Tandubas", "province": "TAW" , "zip": 7502},
  { "name": "Turtle Islands", "province": "TAW", "zip": 7507 }]}
]